{"0911":{"zip_code":"0110911","prefecture":"秋田県","prefecture_kana":"アキタケン","city":"秋田市","city_kana":"アキタシ","town":"飯島","town_kana":"イイジマ","prefecture_code":5},"0949":{"zip_code":"0110949","prefecture":"秋田県","prefecture_kana":"アキタケン","city":"秋田市","city_kana":"アキタシ","town":"飯島飯田","town_kana":"イイジマイイダ","prefecture_code":5},"0912":{"zip_code":"0110912","prefecture":"秋田県","prefecture_kana":"アキタケン","city":"秋田市","city_kana":"アキタシ","town":"飯島川端","town_kana":"イイジマカワバタ","prefecture_code":5},"0916":{"zip_code":"0110916","prefecture":"秋田県","prefecture_kana":"アキタケン","city":"秋田市","city_kana":"アキタシ","town":"飯島穀丁","town_kana":"イイジマコクチョウ","prefecture_code":5},"0947":{"zip_code":"0110947","prefecture":"秋田県","prefecture_kana":"アキタケン","city":"秋田市","city_kana":"アキタシ","town":"飯島新町","town_kana":"イイジマシンチョウ","prefecture_code":5},"0928":{"zip_code":"0110928","prefecture":"秋田県","prefecture_kana":"アキタケン","city":"秋田市","city_kana":"アキタシ","town":"飯島長野上町","town_kana":"イイジマナガノカミチョウ","prefecture_code":5},"0925":{"zip_code":"0110925","prefecture":"秋田県","prefecture_kana":"アキタケン","city":"秋田市","city_kana":"アキタシ","town":"飯島長野中町","town_kana":"イイジマナガノナカチョウ","prefecture_code":5},"0924":{"zip_code":"0110924","prefecture":"秋田県","prefecture_kana":"アキタケン","city":"秋田市","city_kana":"アキタシ","town":"飯島長野本町","town_kana":"イイジマナガノホンチョウ","prefecture_code":5},"0948":{"zip_code":"0110948","prefecture":"秋田県","prefecture_kana":"アキタケン","city":"秋田市","city_kana":"アキタシ","town":"飯島西袋","town_kana":"イイジマニシブクロ","prefecture_code":5},"0913":{"zip_code":"0110913","prefecture":"秋田県","prefecture_kana":"アキタケン","city":"秋田市","city_kana":"アキタシ","town":"飯島鼠田","town_kana":"イイジマネズミタ","prefecture_code":5},"0923":{"zip_code":"0110923","prefecture":"秋田県","prefecture_kana":"アキタケン","city":"秋田市","city_kana":"アキタシ","town":"飯島文京町","town_kana":"イイジマブンキョウチョウ","prefecture_code":5},"0922":{"zip_code":"0110922","prefecture":"秋田県","prefecture_kana":"アキタケン","city":"秋田市","city_kana":"アキタシ","town":"飯島松根東町","town_kana":"イイジママツネヒガシチョウ","prefecture_code":5},"0921":{"zip_code":"0110921","prefecture":"秋田県","prefecture_kana":"アキタケン","city":"秋田市","city_kana":"アキタシ","town":"飯島松根西町","town_kana":"イイジママツネニシチョウ","prefecture_code":5},"0914":{"zip_code":"0110914","prefecture":"秋田県","prefecture_kana":"アキタケン","city":"秋田市","city_kana":"アキタシ","town":"飯島美砂町","town_kana":"イイジマミサゴチョウ","prefecture_code":5},"0917":{"zip_code":"0110917","prefecture":"秋田県","prefecture_kana":"アキタケン","city":"秋田市","city_kana":"アキタシ","town":"飯島道東","town_kana":"イイジマミチヒガシ","prefecture_code":5},"0915":{"zip_code":"0110915","prefecture":"秋田県","prefecture_kana":"アキタケン","city":"秋田市","city_kana":"アキタシ","town":"飯島緑丘町","town_kana":"イイジマミドリガオカチョウ","prefecture_code":5},"0927":{"zip_code":"0110927","prefecture":"秋田県","prefecture_kana":"アキタケン","city":"秋田市","city_kana":"アキタシ","town":"港北新町","town_kana":"コウホクシンチョウ","prefecture_code":5},"0926":{"zip_code":"0110926","prefecture":"秋田県","prefecture_kana":"アキタケン","city":"秋田市","city_kana":"アキタシ","town":"港北松野町","town_kana":"コウホクマツノチョウ","prefecture_code":5},"0932":{"zip_code":"0110932","prefecture":"秋田県","prefecture_kana":"アキタケン","city":"秋田市","city_kana":"アキタシ","town":"将軍野青山町","town_kana":"ショウグンノアオヤマチョウ","prefecture_code":5},"0934":{"zip_code":"0110934","prefecture":"秋田県","prefecture_kana":"アキタケン","city":"秋田市","city_kana":"アキタシ","town":"将軍野桂町","town_kana":"ショウグンノカツラチョウ","prefecture_code":5},"0933":{"zip_code":"0110933","prefecture":"秋田県","prefecture_kana":"アキタケン","city":"秋田市","city_kana":"アキタシ","town":"将軍野堰越","town_kana":"ショウグンノセキコシ","prefecture_code":5},"0935":{"zip_code":"0110935","prefecture":"秋田県","prefecture_kana":"アキタケン","city":"秋田市","city_kana":"アキタシ","town":"将軍野向山","town_kana":"ショウグンノムカイヤマ","prefecture_code":5},"0931":{"zip_code":"0110931","prefecture":"秋田県","prefecture_kana":"アキタケン","city":"秋田市","city_kana":"アキタシ","town":"将軍野東","town_kana":"ショウグンノヒガシ","prefecture_code":5},"0936":{"zip_code":"0110936","prefecture":"秋田県","prefecture_kana":"アキタケン","city":"秋田市","city_kana":"アキタシ","town":"将軍野南","town_kana":"ショウグンノミナミ","prefecture_code":5},"0944":{"zip_code":"0110944","prefecture":"秋田県","prefecture_kana":"アキタケン","city":"秋田市","city_kana":"アキタシ","town":"土崎港穀保町","town_kana":"ツチザキミナトコクボチョウ","prefecture_code":5},"0951":[{"zip_code":"0110951","prefecture":"秋田県","prefecture_kana":"アキタケン","city":"秋田市","city_kana":"アキタシ","town":"土崎港相染町","town_kana":"ツチザキミナトソウゼンマチ","prefecture_code":5},{"zip_code":"0110951","prefecture":"秋田県","prefecture_kana":"アキタケン","city":"秋田市","city_kana":"アキタシ","town":"土崎港古川町","town_kana":"ツチザキミナトフルカワマチ","prefecture_code":5}],"0946":{"zip_code":"0110946","prefecture":"秋田県","prefecture_kana":"アキタケン","city":"秋田市","city_kana":"アキタシ","town":"土崎港中央","town_kana":"ツチザキミナトチュウオウ","prefecture_code":5},"0942":{"zip_code":"0110942","prefecture":"秋田県","prefecture_kana":"アキタケン","city":"秋田市","city_kana":"アキタシ","town":"土崎港東","town_kana":"ツチザキミナトヒガシ","prefecture_code":5},"0945":{"zip_code":"0110945","prefecture":"秋田県","prefecture_kana":"アキタケン","city":"秋田市","city_kana":"アキタシ","town":"土崎港西","town_kana":"ツチザキミナトニシ","prefecture_code":5},"0943":{"zip_code":"0110943","prefecture":"秋田県","prefecture_kana":"アキタケン","city":"秋田市","city_kana":"アキタシ","town":"土崎港南","town_kana":"ツチザキミナトミナミ","prefecture_code":5},"0941":{"zip_code":"0110941","prefecture":"秋田県","prefecture_kana":"アキタケン","city":"秋田市","city_kana":"アキタシ","town":"土崎港北","town_kana":"ツチザキミナトキタ","prefecture_code":5},"0901":{"zip_code":"0110901","prefecture":"秋田県","prefecture_kana":"アキタケン","city":"秋田市","city_kana":"アキタシ","town":"寺内","town_kana":"テラウチ","prefecture_code":5},"0903":{"zip_code":"0110903","prefecture":"秋田県","prefecture_kana":"アキタケン","city":"秋田市","city_kana":"アキタシ","town":"寺内油田","town_kana":"テラウチアブラデン","prefecture_code":5},"0906":{"zip_code":"0110906","prefecture":"秋田県","prefecture_kana":"アキタケン","city":"秋田市","city_kana":"アキタシ","town":"寺内後城","town_kana":"テラウチウシロジョウ","prefecture_code":5},"0938":{"zip_code":"0110938","prefecture":"秋田県","prefecture_kana":"アキタケン","city":"秋田市","city_kana":"アキタシ","town":"寺内鵜ノ木","town_kana":"テラウチウノキ","prefecture_code":5},"0908":{"zip_code":"0110908","prefecture":"秋田県","prefecture_kana":"アキタケン","city":"秋田市","city_kana":"アキタシ","town":"寺内大小路","town_kana":"テラウチオオコウジ","prefecture_code":5},"0939":{"zip_code":"0110939","prefecture":"秋田県","prefecture_kana":"アキタケン","city":"秋田市","city_kana":"アキタシ","town":"寺内大畑","town_kana":"テラウチオオハタ","prefecture_code":5},"0905":{"zip_code":"0110905","prefecture":"秋田県","prefecture_kana":"アキタケン","city":"秋田市","city_kana":"アキタシ","town":"寺内神屋敷","town_kana":"テラウチカミヤシキ","prefecture_code":5},"0937":{"zip_code":"0110937","prefecture":"秋田県","prefecture_kana":"アキタケン","city":"秋田市","city_kana":"アキタシ","town":"寺内高野","town_kana":"テラウチコウヤ","prefecture_code":5},"0909":{"zip_code":"0110909","prefecture":"秋田県","prefecture_kana":"アキタケン","city":"秋田市","city_kana":"アキタシ","town":"寺内児桜","town_kana":"テラウチコザクラ","prefecture_code":5},"0902":{"zip_code":"0110902","prefecture":"秋田県","prefecture_kana":"アキタケン","city":"秋田市","city_kana":"アキタシ","town":"寺内堂ノ沢","town_kana":"テラウチドウノサワ","prefecture_code":5},"0904":{"zip_code":"0110904","prefecture":"秋田県","prefecture_kana":"アキタケン","city":"秋田市","city_kana":"アキタシ","town":"寺内蛭根","town_kana":"テラウチヒルネ","prefecture_code":5},"0907":{"zip_code":"0110907","prefecture":"秋田県","prefecture_kana":"アキタケン","city":"秋田市","city_kana":"アキタシ","town":"寺内焼山","town_kana":"テラウチヤケヤマ","prefecture_code":5}}