{"0023":{"zip_code":"0510023","prefecture":"北海道","prefecture_kana":"ホッカイドウ","city":"室蘭市","city_kana":"ムロランシ","town":"入江町","town_kana":"イリエチョウ","prefecture_code":1},"0035":{"zip_code":"0510035","prefecture":"北海道","prefecture_kana":"ホッカイドウ","city":"室蘭市","city_kana":"ムロランシ","town":"絵鞆町","town_kana":"エトモチョウ","prefecture_code":1},"0033":{"zip_code":"0510033","prefecture":"北海道","prefecture_kana":"ホッカイドウ","city":"室蘭市","city_kana":"ムロランシ","town":"小橋内町","town_kana":"オハシナイチョウ","prefecture_code":1},"0022":{"zip_code":"0510022","prefecture":"北海道","prefecture_kana":"ホッカイドウ","city":"室蘭市","city_kana":"ムロランシ","town":"海岸町","town_kana":"カイガンチョウ","prefecture_code":1},"0032":{"zip_code":"0510032","prefecture":"北海道","prefecture_kana":"ホッカイドウ","city":"室蘭市","city_kana":"ムロランシ","town":"港南町","town_kana":"コウナンチョウ","prefecture_code":1},"0002":{"zip_code":"0510002","prefecture":"北海道","prefecture_kana":"ホッカイドウ","city":"室蘭市","city_kana":"ムロランシ","town":"御前水町","town_kana":"ゴゼンスイチョウ","prefecture_code":1},"0016":{"zip_code":"0510016","prefecture":"北海道","prefecture_kana":"ホッカイドウ","city":"室蘭市","city_kana":"ムロランシ","town":"幸町","town_kana":"サイワイチョウ","prefecture_code":1},"0014":{"zip_code":"0510014","prefecture":"北海道","prefecture_kana":"ホッカイドウ","city":"室蘭市","city_kana":"ムロランシ","town":"栄町","town_kana":"サカエチョウ","prefecture_code":1},"0027":{"zip_code":"0510027","prefecture":"北海道","prefecture_kana":"ホッカイドウ","city":"室蘭市","city_kana":"ムロランシ","town":"沢町","town_kana":"サワチョウ","prefecture_code":1},"0026":{"zip_code":"0510026","prefecture":"北海道","prefecture_kana":"ホッカイドウ","city":"室蘭市","city_kana":"ムロランシ","town":"清水町","town_kana":"シミズチョウ","prefecture_code":1},"0036":{"zip_code":"0510036","prefecture":"北海道","prefecture_kana":"ホッカイドウ","city":"室蘭市","city_kana":"ムロランシ","town":"祝津町","town_kana":"シュクヅチョウ","prefecture_code":1},"0005":{"zip_code":"0510005","prefecture":"北海道","prefecture_kana":"ホッカイドウ","city":"室蘭市","city_kana":"ムロランシ","town":"新富町","town_kana":"シントミチョウ","prefecture_code":1},"0006":{"zip_code":"0510006","prefecture":"北海道","prefecture_kana":"ホッカイドウ","city":"室蘭市","city_kana":"ムロランシ","town":"茶津町","town_kana":"チャツチョウ","prefecture_code":1},"0011":{"zip_code":"0510011","prefecture":"北海道","prefecture_kana":"ホッカイドウ","city":"室蘭市","city_kana":"ムロランシ","town":"中央町","town_kana":"チュウオウチョウ","prefecture_code":1},"0031":{"zip_code":"0510031","prefecture":"北海道","prefecture_kana":"ホッカイドウ","city":"室蘭市","city_kana":"ムロランシ","town":"築地町","town_kana":"ツキジチョウ","prefecture_code":1},"0025":{"zip_code":"0510025","prefecture":"北海道","prefecture_kana":"ホッカイドウ","city":"室蘭市","city_kana":"ムロランシ","town":"常盤町","town_kana":"トキワチョウ","prefecture_code":1},"0028":{"zip_code":"0510028","prefecture":"北海道","prefecture_kana":"ホッカイドウ","city":"室蘭市","city_kana":"ムロランシ","town":"西小路町","town_kana":"ニシコウジチョウ","prefecture_code":1},"0013":{"zip_code":"0510013","prefecture":"北海道","prefecture_kana":"ホッカイドウ","city":"室蘭市","city_kana":"ムロランシ","town":"舟見町","town_kana":"フナミチョウ","prefecture_code":1},"0003":{"zip_code":"0510003","prefecture":"北海道","prefecture_kana":"ホッカイドウ","city":"室蘭市","city_kana":"ムロランシ","town":"母恋南町","town_kana":"ボコイミナミマチ","prefecture_code":1},"0004":{"zip_code":"0510004","prefecture":"北海道","prefecture_kana":"ホッカイドウ","city":"室蘭市","city_kana":"ムロランシ","town":"母恋北町","town_kana":"ボコイキタマチ","prefecture_code":1},"0015":{"zip_code":"0510015","prefecture":"北海道","prefecture_kana":"ホッカイドウ","city":"室蘭市","city_kana":"ムロランシ","town":"本町","town_kana":"ホンチョウ","prefecture_code":1},"0024":{"zip_code":"0510024","prefecture":"北海道","prefecture_kana":"ホッカイドウ","city":"室蘭市","city_kana":"ムロランシ","town":"幕西町","town_kana":"マクニシチョウ","prefecture_code":1},"0034":{"zip_code":"0510034","prefecture":"北海道","prefecture_kana":"ホッカイドウ","city":"室蘭市","city_kana":"ムロランシ","town":"増市町","town_kana":"マスイチチョウ","prefecture_code":1},"0001":{"zip_code":"0510001","prefecture":"北海道","prefecture_kana":"ホッカイドウ","city":"室蘭市","city_kana":"ムロランシ","town":"御崎町","town_kana":"ミサキチョウ","prefecture_code":1},"0021":{"zip_code":"0510021","prefecture":"北海道","prefecture_kana":"ホッカイドウ","city":"室蘭市","city_kana":"ムロランシ","town":"緑町","town_kana":"ミドリチョウ","prefecture_code":1},"0012":{"zip_code":"0510012","prefecture":"北海道","prefecture_kana":"ホッカイドウ","city":"室蘭市","city_kana":"ムロランシ","town":"山手町","town_kana":"ヤマテチョウ","prefecture_code":1}}