{"0851":{"zip_code":"1230851","prefecture":"東京都","prefecture_kana":"トウキョウト","city":"足立区","city_kana":"アダチク","town":"梅田","town_kana":"ウメダ","prefecture_code":13},"0873":{"zip_code":"1230873","prefecture":"東京都","prefecture_kana":"トウキョウト","city":"足立区","city_kana":"アダチク","town":"扇","town_kana":"オウギ","prefecture_code":13},"0844":{"zip_code":"1230844","prefecture":"東京都","prefecture_kana":"トウキョウト","city":"足立区","city_kana":"アダチク","town":"興野","town_kana":"オキノ","prefecture_code":13},"0861":{"zip_code":"1230861","prefecture":"東京都","prefecture_kana":"トウキョウト","city":"足立区","city_kana":"アダチク","town":"加賀","town_kana":"カガ","prefecture_code":13},"0842":{"zip_code":"1230842","prefecture":"東京都","prefecture_kana":"トウキョウト","city":"足立区","city_kana":"アダチク","town":"栗原","town_kana":"クリハラ","prefecture_code":13},"0872":{"zip_code":"1230872","prefecture":"東京都","prefecture_kana":"トウキョウト","city":"足立区","city_kana":"アダチク","town":"江北","town_kana":"コウホク","prefecture_code":13},"0862":{"zip_code":"1230862","prefecture":"東京都","prefecture_kana":"トウキョウト","city":"足立区","city_kana":"アダチク","town":"皿沼","town_kana":"サラヌマ","prefecture_code":13},"0864":{"zip_code":"1230864","prefecture":"東京都","prefecture_kana":"トウキョウト","city":"足立区","city_kana":"アダチク","town":"鹿浜","town_kana":"シカハマ","prefecture_code":13},"0865":{"zip_code":"1230865","prefecture":"東京都","prefecture_kana":"トウキョウト","city":"足立区","city_kana":"アダチク","town":"新田","town_kana":"シンデン","prefecture_code":13},"0852":{"zip_code":"1230852","prefecture":"東京都","prefecture_kana":"トウキョウト","city":"足立区","city_kana":"アダチク","town":"関原","town_kana":"セキバラ","prefecture_code":13},"0871":{"zip_code":"1230871","prefecture":"東京都","prefecture_kana":"トウキョウト","city":"足立区","city_kana":"アダチク","town":"椿","town_kana":"ツバキ","prefecture_code":13},"0841":{"zip_code":"1230841","prefecture":"東京都","prefecture_kana":"トウキョウト","city":"足立区","city_kana":"アダチク","town":"西新井","town_kana":"ニシアライ","prefecture_code":13},"0843":{"zip_code":"1230843","prefecture":"東京都","prefecture_kana":"トウキョウト","city":"足立区","city_kana":"アダチク","town":"西新井栄町","town_kana":"ニシアライサカエチョウ","prefecture_code":13},"0845":{"zip_code":"1230845","prefecture":"東京都","prefecture_kana":"トウキョウト","city":"足立区","city_kana":"アダチク","town":"西新井本町","town_kana":"ニシアライホンチョウ","prefecture_code":13},"0874":{"zip_code":"1230874","prefecture":"東京都","prefecture_kana":"トウキョウト","city":"足立区","city_kana":"アダチク","town":"堀之内","town_kana":"ホリノウチ","prefecture_code":13},"0853":{"zip_code":"1230853","prefecture":"東京都","prefecture_kana":"トウキョウト","city":"足立区","city_kana":"アダチク","town":"本木","town_kana":"モトキ","prefecture_code":13},"0854":{"zip_code":"1230854","prefecture":"東京都","prefecture_kana":"トウキョウト","city":"足立区","city_kana":"アダチク","town":"本木東町","town_kana":"モトキヒガシマチ","prefecture_code":13},"0856":{"zip_code":"1230856","prefecture":"東京都","prefecture_kana":"トウキョウト","city":"足立区","city_kana":"アダチク","town":"本木西町","town_kana":"モトキニシマチ","prefecture_code":13},"0855":{"zip_code":"1230855","prefecture":"東京都","prefecture_kana":"トウキョウト","city":"足立区","city_kana":"アダチク","town":"本木南町","town_kana":"モトキミナミマチ","prefecture_code":13},"0857":{"zip_code":"1230857","prefecture":"東京都","prefecture_kana":"トウキョウト","city":"足立区","city_kana":"アダチク","town":"本木北町","town_kana":"モトキキタマチ","prefecture_code":13},"0863":{"zip_code":"1230863","prefecture":"東京都","prefecture_kana":"トウキョウト","city":"足立区","city_kana":"アダチク","town":"谷在家","town_kana":"ヤザイケ","prefecture_code":13}}