{"0072":{"zip_code":"1360072","prefecture":"東京都","prefecture_kana":"トウキョウト","city":"江東区","city_kana":"コウトウク","town":"大島","town_kana":"オオジマ","prefecture_code":13},"0071":{"zip_code":"1360071","prefecture":"東京都","prefecture_kana":"トウキョウト","city":"江東区","city_kana":"コウトウク","town":"亀戸","town_kana":"カメイド","prefecture_code":13},"0073":{"zip_code":"1360073","prefecture":"東京都","prefecture_kana":"トウキョウト","city":"江東区","city_kana":"コウトウク","town":"北砂","town_kana":"キタスナ","prefecture_code":13},"0082":{"zip_code":"1360082","prefecture":"東京都","prefecture_kana":"トウキョウト","city":"江東区","city_kana":"コウトウク","town":"新木場","town_kana":"シンキバ","prefecture_code":13},"0075":{"zip_code":"1360075","prefecture":"東京都","prefecture_kana":"トウキョウト","city":"江東区","city_kana":"コウトウク","town":"新砂","town_kana":"シンスナ","prefecture_code":13},"0074":{"zip_code":"1360074","prefecture":"東京都","prefecture_kana":"トウキョウト","city":"江東区","city_kana":"コウトウク","town":"東砂","town_kana":"ヒガシスナ","prefecture_code":13},"0076":{"zip_code":"1360076","prefecture":"東京都","prefecture_kana":"トウキョウト","city":"江東区","city_kana":"コウトウク","town":"南砂","town_kana":"ミナミスナ","prefecture_code":13},"0081":{"zip_code":"1360081","prefecture":"東京都","prefecture_kana":"トウキョウト","city":"江東区","city_kana":"コウトウク","town":"夢の島","town_kana":"ユメノシマ","prefecture_code":13},"0083":{"zip_code":"1360083","prefecture":"東京都","prefecture_kana":"トウキョウト","city":"江東区","city_kana":"コウトウク","town":"若洲","town_kana":"ワカス","prefecture_code":13}}