{"0063":{"zip_code":"1420063","prefecture":"東京都","prefecture_kana":"トウキョウト","city":"品川区","city_kana":"シナガワク","town":"荏原","town_kana":"エバラ","prefecture_code":13},"0062":{"zip_code":"1420062","prefecture":"東京都","prefecture_kana":"トウキョウト","city":"品川区","city_kana":"シナガワク","town":"小山","town_kana":"コヤマ","prefecture_code":13},"0061":{"zip_code":"1420061","prefecture":"東京都","prefecture_kana":"トウキョウト","city":"品川区","city_kana":"シナガワク","town":"小山台","town_kana":"コヤマダイ","prefecture_code":13},"0041":{"zip_code":"1420041","prefecture":"東京都","prefecture_kana":"トウキョウト","city":"品川区","city_kana":"シナガワク","town":"戸越","town_kana":"トゴシ","prefecture_code":13},"0053":{"zip_code":"1420053","prefecture":"東京都","prefecture_kana":"トウキョウト","city":"品川区","city_kana":"シナガワク","town":"中延","town_kana":"ナカノブ","prefecture_code":13},"0054":{"zip_code":"1420054","prefecture":"東京都","prefecture_kana":"トウキョウト","city":"品川区","city_kana":"シナガワク","town":"西中延","town_kana":"ニシナカノブ","prefecture_code":13},"0064":{"zip_code":"1420064","prefecture":"東京都","prefecture_kana":"トウキョウト","city":"品川区","city_kana":"シナガワク","town":"旗の台","town_kana":"ハタノダイ","prefecture_code":13},"0052":{"zip_code":"1420052","prefecture":"東京都","prefecture_kana":"トウキョウト","city":"品川区","city_kana":"シナガワク","town":"東中延","town_kana":"ヒガシナカノブ","prefecture_code":13},"0051":{"zip_code":"1420051","prefecture":"東京都","prefecture_kana":"トウキョウト","city":"品川区","city_kana":"シナガワク","town":"平塚","town_kana":"ヒラツカ","prefecture_code":13},"0043":{"zip_code":"1420043","prefecture":"東京都","prefecture_kana":"トウキョウト","city":"品川区","city_kana":"シナガワク","town":"二葉","town_kana":"フタバ","prefecture_code":13},"0042":{"zip_code":"1420042","prefecture":"東京都","prefecture_kana":"トウキョウト","city":"品川区","city_kana":"シナガワク","town":"豊町","town_kana":"ユタカチョウ","prefecture_code":13}}