{"0014":{"zip_code":"1430014","prefecture":"東京都","prefecture_kana":"トウキョウト","city":"大田区","city_kana":"オオタク","town":"大森中","town_kana":"オオモリナカ","prefecture_code":13},"0011":{"zip_code":"1430011","prefecture":"東京都","prefecture_kana":"トウキョウト","city":"大田区","city_kana":"オオタク","town":"大森本町","town_kana":"オオモリホンチョウ","prefecture_code":13},"0012":{"zip_code":"1430012","prefecture":"東京都","prefecture_kana":"トウキョウト","city":"大田区","city_kana":"オオタク","town":"大森東","town_kana":"オオモリヒガシ","prefecture_code":13},"0015":{"zip_code":"1430015","prefecture":"東京都","prefecture_kana":"トウキョウト","city":"大田区","city_kana":"オオタク","town":"大森西","town_kana":"オオモリニシ","prefecture_code":13},"0013":{"zip_code":"1430013","prefecture":"東京都","prefecture_kana":"トウキョウト","city":"大田区","city_kana":"オオタク","town":"大森南","town_kana":"オオモリミナミ","prefecture_code":13},"0016":{"zip_code":"1430016","prefecture":"東京都","prefecture_kana":"トウキョウト","city":"大田区","city_kana":"オオタク","town":"大森北","town_kana":"オオモリキタ","prefecture_code":13},"0021":{"zip_code":"1430021","prefecture":"東京都","prefecture_kana":"トウキョウト","city":"大田区","city_kana":"オオタク","town":"北馬込","town_kana":"キタマゴメ","prefecture_code":13},"0003":{"zip_code":"1430003","prefecture":"東京都","prefecture_kana":"トウキョウト","city":"大田区","city_kana":"オオタク","town":"京浜島","town_kana":"ケイヒンジマ","prefecture_code":13},"0023":{"zip_code":"1430023","prefecture":"東京都","prefecture_kana":"トウキョウト","city":"大田区","city_kana":"オオタク","town":"山王","town_kana":"サンノウ","prefecture_code":13},"0002":{"zip_code":"1430002","prefecture":"東京都","prefecture_kana":"トウキョウト","city":"大田区","city_kana":"オオタク","town":"城南島","town_kana":"ジョウナンジマ","prefecture_code":13},"0004":{"zip_code":"1430004","prefecture":"東京都","prefecture_kana":"トウキョウト","city":"大田区","city_kana":"オオタク","town":"昭和島","town_kana":"ショウワジマ","prefecture_code":13},"0024":{"zip_code":"1430024","prefecture":"東京都","prefecture_kana":"トウキョウト","city":"大田区","city_kana":"オオタク","town":"中央","town_kana":"チュウオウ","prefecture_code":13},"0001":{"zip_code":"1430001","prefecture":"東京都","prefecture_kana":"トウキョウト","city":"大田区","city_kana":"オオタク","town":"東海","town_kana":"トウカイ","prefecture_code":13},"0027":{"zip_code":"1430027","prefecture":"東京都","prefecture_kana":"トウキョウト","city":"大田区","city_kana":"オオタク","town":"中馬込","town_kana":"ナカマゴメ","prefecture_code":13},"0026":{"zip_code":"1430026","prefecture":"東京都","prefecture_kana":"トウキョウト","city":"大田区","city_kana":"オオタク","town":"西馬込","town_kana":"ニシマゴメ","prefecture_code":13},"0022":{"zip_code":"1430022","prefecture":"東京都","prefecture_kana":"トウキョウト","city":"大田区","city_kana":"オオタク","town":"東馬込","town_kana":"ヒガシマゴメ","prefecture_code":13},"0007":{"zip_code":"1430007","prefecture":"東京都","prefecture_kana":"トウキョウト","city":"大田区","city_kana":"オオタク","town":"ふるさとの浜辺公園","town_kana":"フルサトノハマベコウエン","prefecture_code":13},"0006":{"zip_code":"1430006","prefecture":"東京都","prefecture_kana":"トウキョウト","city":"大田区","city_kana":"オオタク","town":"平和島","town_kana":"ヘイワジマ","prefecture_code":13},"0005":{"zip_code":"1430005","prefecture":"東京都","prefecture_kana":"トウキョウト","city":"大田区","city_kana":"オオタク","town":"平和の森公園","town_kana":"ヘイワノモリコウエン","prefecture_code":13},"0025":{"zip_code":"1430025","prefecture":"東京都","prefecture_kana":"トウキョウト","city":"大田区","city_kana":"オオタク","town":"南馬込","town_kana":"ミナミマゴメ","prefecture_code":13}}