{"0042":{"zip_code":"1530042","prefecture":"東京都","prefecture_kana":"トウキョウト","city":"目黒区","city_kana":"メグロク","town":"青葉台","town_kana":"アオバダイ","prefecture_code":13},"0044":{"zip_code":"1530044","prefecture":"東京都","prefecture_kana":"トウキョウト","city":"目黒区","city_kana":"メグロク","town":"大橋","town_kana":"オオハシ","prefecture_code":13},"0051":{"zip_code":"1530051","prefecture":"東京都","prefecture_kana":"トウキョウト","city":"目黒区","city_kana":"メグロク","town":"上目黒","town_kana":"カミメグロ","prefecture_code":13},"0053":{"zip_code":"1530053","prefecture":"東京都","prefecture_kana":"トウキョウト","city":"目黒区","city_kana":"メグロク","town":"五本木","town_kana":"ゴホンギ","prefecture_code":13},"0041":{"zip_code":"1530041","prefecture":"東京都","prefecture_kana":"トウキョウト","city":"目黒区","city_kana":"メグロク","town":"駒場","town_kana":"コマバ","prefecture_code":13},"0064":{"zip_code":"1530064","prefecture":"東京都","prefecture_kana":"トウキョウト","city":"目黒区","city_kana":"メグロク","town":"下目黒","town_kana":"シモメグロ","prefecture_code":13},"0065":{"zip_code":"1530065","prefecture":"東京都","prefecture_kana":"トウキョウト","city":"目黒区","city_kana":"メグロク","town":"中町","town_kana":"ナカチョウ","prefecture_code":13},"0061":{"zip_code":"1530061","prefecture":"東京都","prefecture_kana":"トウキョウト","city":"目黒区","city_kana":"メグロク","town":"中目黒","town_kana":"ナカメグロ","prefecture_code":13},"0043":{"zip_code":"1530043","prefecture":"東京都","prefecture_kana":"トウキョウト","city":"目黒区","city_kana":"メグロク","town":"東山","town_kana":"ヒガシヤマ","prefecture_code":13},"0062":{"zip_code":"1530062","prefecture":"東京都","prefecture_kana":"トウキョウト","city":"目黒区","city_kana":"メグロク","town":"三田","town_kana":"ミタ","prefecture_code":13},"0063":{"zip_code":"1530063","prefecture":"東京都","prefecture_kana":"トウキョウト","city":"目黒区","city_kana":"メグロク","town":"目黒","town_kana":"メグロ","prefecture_code":13},"0052":{"zip_code":"1530052","prefecture":"東京都","prefecture_kana":"トウキョウト","city":"目黒区","city_kana":"メグロク","town":"祐天寺","town_kana":"ユウテンジ","prefecture_code":13}}