{"0044":{"zip_code":"1560044","prefecture":"東京都","prefecture_kana":"トウキョウト","city":"世田谷区","city_kana":"セタガヤク","town":"赤堤","town_kana":"アカツツミ","prefecture_code":13},"0041":{"zip_code":"1560041","prefecture":"東京都","prefecture_kana":"トウキョウト","city":"世田谷区","city_kana":"セタガヤク","town":"大原","town_kana":"オオハラ","prefecture_code":13},"0057":{"zip_code":"1560057","prefecture":"東京都","prefecture_kana":"トウキョウト","city":"世田谷区","city_kana":"セタガヤク","town":"上北沢","town_kana":"カミキタザワ","prefecture_code":13},"0052":{"zip_code":"1560052","prefecture":"東京都","prefecture_kana":"トウキョウト","city":"世田谷区","city_kana":"セタガヤク","town":"経堂","town_kana":"キョウドウ","prefecture_code":13},"0053":{"zip_code":"1560053","prefecture":"東京都","prefecture_kana":"トウキョウト","city":"世田谷区","city_kana":"セタガヤク","town":"桜","town_kana":"サクラ","prefecture_code":13},"0054":{"zip_code":"1560054","prefecture":"東京都","prefecture_kana":"トウキョウト","city":"世田谷区","city_kana":"セタガヤク","town":"桜丘","town_kana":"サクラガオカ","prefecture_code":13},"0045":{"zip_code":"1560045","prefecture":"東京都","prefecture_kana":"トウキョウト","city":"世田谷区","city_kana":"セタガヤク","town":"桜上水","town_kana":"サクラジョウスイ","prefecture_code":13},"0056":{"zip_code":"1560056","prefecture":"東京都","prefecture_kana":"トウキョウト","city":"世田谷区","city_kana":"セタガヤク","town":"八幡山","town_kana":"ハチマンヤマ","prefecture_code":13},"0042":{"zip_code":"1560042","prefecture":"東京都","prefecture_kana":"トウキョウト","city":"世田谷区","city_kana":"セタガヤク","town":"羽根木","town_kana":"ハネギ","prefecture_code":13},"0055":{"zip_code":"1560055","prefecture":"東京都","prefecture_kana":"トウキョウト","city":"世田谷区","city_kana":"セタガヤク","town":"船橋","town_kana":"フナバシ","prefecture_code":13},"0043":{"zip_code":"1560043","prefecture":"東京都","prefecture_kana":"トウキョウト","city":"世田谷区","city_kana":"セタガヤク","town":"松原","town_kana":"マツバラ","prefecture_code":13},"0051":{"zip_code":"1560051","prefecture":"東京都","prefecture_kana":"トウキョウト","city":"世田谷区","city_kana":"セタガヤク","town":"宮坂","town_kana":"ミヤサカ","prefecture_code":13}}