{"0032":{"zip_code":"1670032","prefecture":"東京都","prefecture_kana":"トウキョウト","city":"杉並区","city_kana":"スギナミク","town":"天沼","town_kana":"アマヌマ","prefecture_code":13},"0021":{"zip_code":"1670021","prefecture":"東京都","prefecture_kana":"トウキョウト","city":"杉並区","city_kana":"スギナミク","town":"井草","town_kana":"イグサ","prefecture_code":13},"0035":{"zip_code":"1670035","prefecture":"東京都","prefecture_kana":"トウキョウト","city":"杉並区","city_kana":"スギナミク","town":"今川","town_kana":"イマガワ","prefecture_code":13},"0051":{"zip_code":"1670051","prefecture":"東京都","prefecture_kana":"トウキョウト","city":"杉並区","city_kana":"スギナミク","town":"荻窪","town_kana":"オギクボ","prefecture_code":13},"0023":{"zip_code":"1670023","prefecture":"東京都","prefecture_kana":"トウキョウト","city":"杉並区","city_kana":"スギナミク","town":"上井草","town_kana":"カミイグサ","prefecture_code":13},"0043":{"zip_code":"1670043","prefecture":"東京都","prefecture_kana":"トウキョウト","city":"杉並区","city_kana":"スギナミク","town":"上荻","town_kana":"カミオギ","prefecture_code":13},"0033":{"zip_code":"1670033","prefecture":"東京都","prefecture_kana":"トウキョウト","city":"杉並区","city_kana":"スギナミク","town":"清水","town_kana":"シミズ","prefecture_code":13},"0022":{"zip_code":"1670022","prefecture":"東京都","prefecture_kana":"トウキョウト","city":"杉並区","city_kana":"スギナミク","town":"下井草","town_kana":"シモイグサ","prefecture_code":13},"0054":{"zip_code":"1670054","prefecture":"東京都","prefecture_kana":"トウキョウト","city":"杉並区","city_kana":"スギナミク","town":"松庵","town_kana":"ショウアン","prefecture_code":13},"0041":{"zip_code":"1670041","prefecture":"東京都","prefecture_kana":"トウキョウト","city":"杉並区","city_kana":"スギナミク","town":"善福寺","town_kana":"ゼンプクジ","prefecture_code":13},"0053":{"zip_code":"1670053","prefecture":"東京都","prefecture_kana":"トウキョウト","city":"杉並区","city_kana":"スギナミク","town":"西荻南","town_kana":"ニシオギミナミ","prefecture_code":13},"0042":{"zip_code":"1670042","prefecture":"東京都","prefecture_kana":"トウキョウト","city":"杉並区","city_kana":"スギナミク","town":"西荻北","town_kana":"ニシオギキタ","prefecture_code":13},"0031":{"zip_code":"1670031","prefecture":"東京都","prefecture_kana":"トウキョウト","city":"杉並区","city_kana":"スギナミク","town":"本天沼","town_kana":"ホンアマヌマ","prefecture_code":13},"0052":{"zip_code":"1670052","prefecture":"東京都","prefecture_kana":"トウキョウト","city":"杉並区","city_kana":"スギナミク","town":"南荻窪","town_kana":"ミナミオギクボ","prefecture_code":13},"0034":{"zip_code":"1670034","prefecture":"東京都","prefecture_kana":"トウキョウト","city":"杉並区","city_kana":"スギナミク","town":"桃井","town_kana":"モモイ","prefecture_code":13}}