{"0004":{"zip_code":"1730004","prefecture":"東京都","prefecture_kana":"トウキョウト","city":"板橋区","city_kana":"イタバシク","town":"板橋","town_kana":"イタバシ","prefecture_code":13},"0002":{"zip_code":"1730002","prefecture":"東京都","prefecture_kana":"トウキョウト","city":"板橋区","city_kana":"イタバシク","town":"稲荷台","town_kana":"イナリダイ","prefecture_code":13},"0035":{"zip_code":"1730035","prefecture":"東京都","prefecture_kana":"トウキョウト","city":"板橋区","city_kana":"イタバシク","town":"大谷口","town_kana":"オオヤグチ","prefecture_code":13},"0032":{"zip_code":"1730032","prefecture":"東京都","prefecture_kana":"トウキョウト","city":"板橋区","city_kana":"イタバシク","town":"大谷口上町","town_kana":"オオヤグチカミチョウ","prefecture_code":13},"0031":{"zip_code":"1730031","prefecture":"東京都","prefecture_kana":"トウキョウト","city":"板橋区","city_kana":"イタバシク","town":"大谷口北町","town_kana":"オオヤグチキタチョウ","prefecture_code":13},"0024":{"zip_code":"1730024","prefecture":"東京都","prefecture_kana":"トウキョウト","city":"板橋区","city_kana":"イタバシク","town":"大山金井町","town_kana":"オオヤマカナイチョウ","prefecture_code":13},"0014":{"zip_code":"1730014","prefecture":"東京都","prefecture_kana":"トウキョウト","city":"板橋区","city_kana":"イタバシク","town":"大山東町","town_kana":"オオヤマヒガシチョウ","prefecture_code":13},"0033":{"zip_code":"1730033","prefecture":"東京都","prefecture_kana":"トウキョウト","city":"板橋区","city_kana":"イタバシク","town":"大山西町","town_kana":"オオヤマニシチョウ","prefecture_code":13},"0023":{"zip_code":"1730023","prefecture":"東京都","prefecture_kana":"トウキョウト","city":"板橋区","city_kana":"イタバシク","town":"大山町","town_kana":"オオヤマチョウ","prefecture_code":13},"0003":{"zip_code":"1730003","prefecture":"東京都","prefecture_kana":"トウキョウト","city":"板橋区","city_kana":"イタバシク","town":"加賀","town_kana":"カガ","prefecture_code":13},"0025":{"zip_code":"1730025","prefecture":"東京都","prefecture_kana":"トウキョウト","city":"板橋区","city_kana":"イタバシク","town":"熊野町","town_kana":"クマノチョウ","prefecture_code":13},"0037":{"zip_code":"1730037","prefecture":"東京都","prefecture_kana":"トウキョウト","city":"板橋区","city_kana":"イタバシク","town":"小茂根","town_kana":"コモネ","prefecture_code":13},"0034":{"zip_code":"1730034","prefecture":"東京都","prefecture_kana":"トウキョウト","city":"板橋区","city_kana":"イタバシク","town":"幸町","town_kana":"サイワイチョウ","prefecture_code":13},"0015":{"zip_code":"1730015","prefecture":"東京都","prefecture_kana":"トウキョウト","city":"板橋区","city_kana":"イタバシク","town":"栄町","town_kana":"サカエチョウ","prefecture_code":13},"0016":{"zip_code":"1730016","prefecture":"東京都","prefecture_kana":"トウキョウト","city":"板橋区","city_kana":"イタバシク","town":"中板橋","town_kana":"ナカイタバシ","prefecture_code":13},"0005":{"zip_code":"1730005","prefecture":"東京都","prefecture_kana":"トウキョウト","city":"板橋区","city_kana":"イタバシク","town":"仲宿","town_kana":"ナカジュク","prefecture_code":13},"0022":{"zip_code":"1730022","prefecture":"東京都","prefecture_kana":"トウキョウト","city":"板橋区","city_kana":"イタバシク","town":"仲町","town_kana":"ナカチョウ","prefecture_code":13},"0026":{"zip_code":"1730026","prefecture":"東京都","prefecture_kana":"トウキョウト","city":"板橋区","city_kana":"イタバシク","town":"中丸町","town_kana":"ナカマルチョウ","prefecture_code":13},"0013":{"zip_code":"1730013","prefecture":"東京都","prefecture_kana":"トウキョウト","city":"板橋区","city_kana":"イタバシク","town":"氷川町","town_kana":"ヒカワチョウ","prefecture_code":13},"0011":{"zip_code":"1730011","prefecture":"東京都","prefecture_kana":"トウキョウト","city":"板橋区","city_kana":"イタバシク","town":"双葉町","town_kana":"フタバチョウ","prefecture_code":13},"0001":{"zip_code":"1730001","prefecture":"東京都","prefecture_kana":"トウキョウト","city":"板橋区","city_kana":"イタバシク","town":"本町","town_kana":"ホンチョウ","prefecture_code":13},"0027":{"zip_code":"1730027","prefecture":"東京都","prefecture_kana":"トウキョウト","city":"板橋区","city_kana":"イタバシク","town":"南町","town_kana":"ミナミチョウ","prefecture_code":13},"0036":{"zip_code":"1730036","prefecture":"東京都","prefecture_kana":"トウキョウト","city":"板橋区","city_kana":"イタバシク","town":"向原","town_kana":"ムカイハラ","prefecture_code":13},"0012":{"zip_code":"1730012","prefecture":"東京都","prefecture_kana":"トウキョウト","city":"板橋区","city_kana":"イタバシク","town":"大和町","town_kana":"ヤマトチョウ","prefecture_code":13},"0021":{"zip_code":"1730021","prefecture":"東京都","prefecture_kana":"トウキョウト","city":"板橋区","city_kana":"イタバシク","town":"弥生町","town_kana":"ヤヨイチョウ","prefecture_code":13}}