{"0814":{"zip_code":"1930814","prefecture":"東京都","prefecture_kana":"トウキョウト","city":"八王子市","city_kana":"ハチオウジシ","town":"泉町","town_kana":"イズミチョウ","prefecture_code":13},"0802":{"zip_code":"1930802","prefecture":"東京都","prefecture_kana":"トウキョウト","city":"八王子市","city_kana":"ハチオウジシ","town":"犬目町","town_kana":"イヌメマチ","prefecture_code":13},"0841":{"zip_code":"1930841","prefecture":"東京都","prefecture_kana":"トウキョウト","city":"八王子市","city_kana":"ハチオウジシ","town":"裏高尾町","town_kana":"ウラタカオマチ","prefecture_code":13},"0935":{"zip_code":"1930935","prefecture":"東京都","prefecture_kana":"トウキョウト","city":"八王子市","city_kana":"ハチオウジシ","town":"大船町","town_kana":"オオフネマチ","prefecture_code":13},"0815":{"zip_code":"1930815","prefecture":"東京都","prefecture_kana":"トウキョウト","city":"八王子市","city_kana":"ハチオウジシ","town":"叶谷町","town_kana":"カノウヤマチ","prefecture_code":13},"0811":{"zip_code":"1930811","prefecture":"東京都","prefecture_kana":"トウキョウト","city":"八王子市","city_kana":"ハチオウジシ","town":"上壱分方町","town_kana":"カミイチブカタマチ","prefecture_code":13},"0801":{"zip_code":"1930801","prefecture":"東京都","prefecture_kana":"トウキョウト","city":"八王子市","city_kana":"ハチオウジシ","town":"川口町","town_kana":"カワグチマチ","prefecture_code":13},"0821":{"zip_code":"1930821","prefecture":"東京都","prefecture_kana":"トウキョウト","city":"八王子市","city_kana":"ハチオウジシ","town":"川町","town_kana":"カワマチ","prefecture_code":13},"0804":{"zip_code":"1930804","prefecture":"東京都","prefecture_kana":"トウキョウト","city":"八王子市","city_kana":"ハチオウジシ","town":"清川町","town_kana":"キヨカワチョウ","prefecture_code":13},"0942":{"zip_code":"1930942","prefecture":"東京都","prefecture_kana":"トウキョウト","city":"八王子市","city_kana":"ハチオウジシ","town":"椚田町","town_kana":"クヌギダマチ","prefecture_code":13},"0934":{"zip_code":"1930934","prefecture":"東京都","prefecture_kana":"トウキョウト","city":"八王子市","city_kana":"ハチオウジシ","town":"小比企町","town_kana":"コビキマチ","prefecture_code":13},"0832":{"zip_code":"1930832","prefecture":"東京都","prefecture_kana":"トウキョウト","city":"八王子市","city_kana":"ハチオウジシ","town":"散田町","town_kana":"サンダマチ","prefecture_code":13},"0825":{"zip_code":"1930825","prefecture":"東京都","prefecture_kana":"トウキョウト","city":"八王子市","city_kana":"ハチオウジシ","town":"城山手","town_kana":"シロヤマテ","prefecture_code":13},"0812":{"zip_code":"1930812","prefecture":"東京都","prefecture_kana":"トウキョウト","city":"八王子市","city_kana":"ハチオウジシ","town":"諏訪町","town_kana":"スワマチ","prefecture_code":13},"0835":{"zip_code":"1930835","prefecture":"東京都","prefecture_kana":"トウキョウト","city":"八王子市","city_kana":"ハチオウジシ","town":"千人町","town_kana":"センニンチョウ","prefecture_code":13},"0931":{"zip_code":"1930931","prefecture":"東京都","prefecture_kana":"トウキョウト","city":"八王子市","city_kana":"ハチオウジシ","town":"台町","town_kana":"ダイマチ","prefecture_code":13},"0816":{"zip_code":"1930816","prefecture":"東京都","prefecture_kana":"トウキョウト","city":"八王子市","city_kana":"ハチオウジシ","town":"大楽寺町","town_kana":"ダイラクジマチ","prefecture_code":13},"0844":{"zip_code":"1930844","prefecture":"東京都","prefecture_kana":"トウキョウト","city":"八王子市","city_kana":"ハチオウジシ","town":"高尾町","town_kana":"タカオマチ","prefecture_code":13},"0944":{"zip_code":"1930944","prefecture":"東京都","prefecture_kana":"トウキョウト","city":"八王子市","city_kana":"ハチオウジシ","town":"館町","town_kana":"タテマチ","prefecture_code":13},"0943":{"zip_code":"1930943","prefecture":"東京都","prefecture_kana":"トウキョウト","city":"八王子市","city_kana":"ハチオウジシ","town":"寺田町","town_kana":"テラダマチ","prefecture_code":13},"0843":{"zip_code":"1930843","prefecture":"東京都","prefecture_kana":"トウキョウト","city":"八王子市","city_kana":"ハチオウジシ","town":"廿里町","town_kana":"トドリマチ","prefecture_code":13},"0824":{"zip_code":"1930824","prefecture":"東京都","prefecture_kana":"トウキョウト","city":"八王子市","city_kana":"ハチオウジシ","town":"長房町","town_kana":"ナガブサマチ","prefecture_code":13},"0831":{"zip_code":"1930831","prefecture":"東京都","prefecture_kana":"トウキョウト","city":"八王子市","city_kana":"ハチオウジシ","town":"並木町","town_kana":"ナミキチョウ","prefecture_code":13},"0803":{"zip_code":"1930803","prefecture":"東京都","prefecture_kana":"トウキョウト","city":"八王子市","city_kana":"ハチオウジシ","town":"楢原町","town_kana":"ナラハラマチ","prefecture_code":13},"0842":{"zip_code":"1930842","prefecture":"東京都","prefecture_kana":"トウキョウト","city":"八王子市","city_kana":"ハチオウジシ","town":"西浅川町","town_kana":"ニシアサカワマチ","prefecture_code":13},"0822":{"zip_code":"1930822","prefecture":"東京都","prefecture_kana":"トウキョウト","city":"八王子市","city_kana":"ハチオウジシ","town":"弐分方町","town_kana":"ニブカタマチ","prefecture_code":13},"0941":{"zip_code":"1930941","prefecture":"東京都","prefecture_kana":"トウキョウト","city":"八王子市","city_kana":"ハチオウジシ","town":"狭間町","town_kana":"ハザママチ","prefecture_code":13},"0845":{"zip_code":"1930845","prefecture":"東京都","prefecture_kana":"トウキョウト","city":"八王子市","city_kana":"ハチオウジシ","town":"初沢町","town_kana":"ハツザワマチ","prefecture_code":13},"0834":{"zip_code":"1930834","prefecture":"東京都","prefecture_kana":"トウキョウト","city":"八王子市","city_kana":"ハチオウジシ","town":"東浅川町","town_kana":"ヒガシアサカワマチ","prefecture_code":13},"0836":{"zip_code":"1930836","prefecture":"東京都","prefecture_kana":"トウキョウト","city":"八王子市","city_kana":"ハチオウジシ","town":"日吉町","town_kana":"ヒヨシチョウ","prefecture_code":13},"0932":{"zip_code":"1930932","prefecture":"東京都","prefecture_kana":"トウキョウト","city":"八王子市","city_kana":"ハチオウジシ","town":"緑町","town_kana":"ミドリチョウ","prefecture_code":13},"0846":{"zip_code":"1930846","prefecture":"東京都","prefecture_kana":"トウキョウト","city":"八王子市","city_kana":"ハチオウジシ","town":"南浅川町","town_kana":"ミナミアサカワマチ","prefecture_code":13},"0833":{"zip_code":"1930833","prefecture":"東京都","prefecture_kana":"トウキョウト","city":"八王子市","city_kana":"ハチオウジシ","town":"めじろ台","town_kana":"メジロダイ","prefecture_code":13},"0826":{"zip_code":"1930826","prefecture":"東京都","prefecture_kana":"トウキョウト","city":"八王子市","city_kana":"ハチオウジシ","town":"元八王子町","town_kana":"モトハチオウジマチ","prefecture_code":13},"0933":{"zip_code":"1930933","prefecture":"東京都","prefecture_kana":"トウキョウト","city":"八王子市","city_kana":"ハチオウジシ","town":"山田町","town_kana":"ヤマタマチ","prefecture_code":13},"0823":{"zip_code":"1930823","prefecture":"東京都","prefecture_kana":"トウキョウト","city":"八王子市","city_kana":"ハチオウジシ","town":"横川町","town_kana":"ヨコカワマチ","prefecture_code":13},"0813":{"zip_code":"1930813","prefecture":"東京都","prefecture_kana":"トウキョウト","city":"八王子市","city_kana":"ハチオウジシ","town":"四谷町","town_kana":"ヨツヤマチ","prefecture_code":13}}