{"0062":{"zip_code":"2370062","prefecture":"神奈川県","prefecture_kana":"カナガワケン","city":"横須賀市","city_kana":"ヨコスカシ","town":"浦郷町","town_kana":"ウラゴウチョウ","prefecture_code":14},"0063":{"zip_code":"2370063","prefecture":"神奈川県","prefecture_kana":"カナガワケン","city":"横須賀市","city_kana":"ヨコスカシ","town":"追浜東町","town_kana":"オッパマヒガシチョウ","prefecture_code":14},"0065":{"zip_code":"2370065","prefecture":"神奈川県","prefecture_kana":"カナガワケン","city":"横須賀市","city_kana":"ヨコスカシ","town":"追浜南町","town_kana":"オッパマミナミチョウ","prefecture_code":14},"0068":{"zip_code":"2370068","prefecture":"神奈川県","prefecture_kana":"カナガワケン","city":"横須賀市","city_kana":"ヨコスカシ","town":"追浜本町","town_kana":"オッパマホンチョウ","prefecture_code":14},"0064":{"zip_code":"2370064","prefecture":"神奈川県","prefecture_kana":"カナガワケン","city":"横須賀市","city_kana":"ヨコスカシ","town":"追浜町","town_kana":"オッパマチョウ","prefecture_code":14},"0066":{"zip_code":"2370066","prefecture":"神奈川県","prefecture_kana":"カナガワケン","city":"横須賀市","city_kana":"ヨコスカシ","town":"湘南鷹取","town_kana":"ショウナンタカトリ","prefecture_code":14},"0073":{"zip_code":"2370073","prefecture":"神奈川県","prefecture_kana":"カナガワケン","city":"横須賀市","city_kana":"ヨコスカシ","town":"田浦泉町","town_kana":"タウライズミチョウ","prefecture_code":14},"0074":{"zip_code":"2370074","prefecture":"神奈川県","prefecture_kana":"カナガワケン","city":"横須賀市","city_kana":"ヨコスカシ","town":"田浦大作町","town_kana":"タウラオオサクチョウ","prefecture_code":14},"0071":{"zip_code":"2370071","prefecture":"神奈川県","prefecture_kana":"カナガワケン","city":"横須賀市","city_kana":"ヨコスカシ","town":"田浦港町","town_kana":"タウラミナトチョウ","prefecture_code":14},"0075":{"zip_code":"2370075","prefecture":"神奈川県","prefecture_kana":"カナガワケン","city":"横須賀市","city_kana":"ヨコスカシ","town":"田浦町","town_kana":"タウラチョウ","prefecture_code":14},"0067":{"zip_code":"2370067","prefecture":"神奈川県","prefecture_kana":"カナガワケン","city":"横須賀市","city_kana":"ヨコスカシ","town":"鷹取","town_kana":"タカトリ","prefecture_code":14},"0072":{"zip_code":"2370072","prefecture":"神奈川県","prefecture_kana":"カナガワケン","city":"横須賀市","city_kana":"ヨコスカシ","town":"長浦町","town_kana":"ナガウラチョウ","prefecture_code":14},"0061":{"zip_code":"2370061","prefecture":"神奈川県","prefecture_kana":"カナガワケン","city":"横須賀市","city_kana":"ヨコスカシ","town":"夏島町","town_kana":"ナツシマチョウ","prefecture_code":14},"0078":{"zip_code":"2370078","prefecture":"神奈川県","prefecture_kana":"カナガワケン","city":"横須賀市","city_kana":"ヨコスカシ","town":"箱崎町","town_kana":"ハコザキチョウ","prefecture_code":14},"0077":{"zip_code":"2370077","prefecture":"神奈川県","prefecture_kana":"カナガワケン","city":"横須賀市","city_kana":"ヨコスカシ","town":"浜見台","town_kana":"ハマミダイ","prefecture_code":14},"0076":{"zip_code":"2370076","prefecture":"神奈川県","prefecture_kana":"カナガワケン","city":"横須賀市","city_kana":"ヨコスカシ","town":"船越町","town_kana":"フナコシチョウ","prefecture_code":14},"0079":{"zip_code":"2370079","prefecture":"神奈川県","prefecture_kana":"カナガワケン","city":"横須賀市","city_kana":"ヨコスカシ","town":"港が丘","town_kana":"ミナトガオカ","prefecture_code":14}}