{"0000":{"zip_code":"2610000","prefecture":"千葉県","prefecture_kana":"チバケン","city":"千葉市美浜区","city_kana":"チバシミハマク","town":"","town_kana":"","prefecture_code":12},"0012":{"zip_code":"2610012","prefecture":"千葉県","prefecture_kana":"チバケン","city":"千葉市美浜区","city_kana":"チバシミハマク","town":"磯辺","town_kana":"イソベ","prefecture_code":12},"0005":{"zip_code":"2610005","prefecture":"千葉県","prefecture_kana":"チバケン","city":"千葉市美浜区","city_kana":"チバシミハマク","town":"稲毛海岸","town_kana":"イナゲカイガン","prefecture_code":12},"0013":{"zip_code":"2610013","prefecture":"千葉県","prefecture_kana":"チバケン","city":"千葉市美浜区","city_kana":"チバシミハマク","town":"打瀬","town_kana":"ウタセ","prefecture_code":12},"0001":{"zip_code":"2610001","prefecture":"千葉県","prefecture_kana":"チバケン","city":"千葉市美浜区","city_kana":"チバシミハマク","town":"幸町","town_kana":"サイワイチョウ","prefecture_code":12},"0002":{"zip_code":"2610002","prefecture":"千葉県","prefecture_kana":"チバケン","city":"千葉市美浜区","city_kana":"チバシミハマク","town":"新港","town_kana":"シンミナト","prefecture_code":12},"0004":{"zip_code":"2610004","prefecture":"千葉県","prefecture_kana":"チバケン","city":"千葉市美浜区","city_kana":"チバシミハマク","town":"高洲","town_kana":"タカス","prefecture_code":12},"0003":{"zip_code":"2610003","prefecture":"千葉県","prefecture_kana":"チバケン","city":"千葉市美浜区","city_kana":"チバシミハマク","town":"高浜","town_kana":"タカハマ","prefecture_code":12},"0024":{"zip_code":"2610024","prefecture":"千葉県","prefecture_kana":"チバケン","city":"千葉市美浜区","city_kana":"チバシミハマク","town":"豊砂","town_kana":"トヨスナ","prefecture_code":12},"0023":{"zip_code":"2610023","prefecture":"千葉県","prefecture_kana":"チバケン","city":"千葉市美浜区","city_kana":"チバシミハマク","town":"中瀬","town_kana":"ナカセ","prefecture_code":12},"7190":{"zip_code":"2617190","prefecture":"千葉県","prefecture_kana":"チバケン","city":"千葉市美浜区","city_kana":"チバシミハマク","town":"中瀬ワールドビジネスガーデン","town_kana":"ナカセワールドビジネスガーデン","prefecture_code":12},"7101":{"zip_code":"2617101","prefecture":"千葉県","prefecture_kana":"チバケン","city":"千葉市美浜区","city_kana":"チバシミハマク","town":"中瀬ワールドビジネスガーデン　１階","town_kana":"ナカセワールドビジネスガーデン1カイ","prefecture_code":12},"7102":{"zip_code":"2617102","prefecture":"千葉県","prefecture_kana":"チバケン","city":"千葉市美浜区","city_kana":"チバシミハマク","town":"中瀬ワールドビジネスガーデン　２階","town_kana":"ナカセワールドビジネスガーデン2カイ","prefecture_code":12},"7103":{"zip_code":"2617103","prefecture":"千葉県","prefecture_kana":"チバケン","city":"千葉市美浜区","city_kana":"チバシミハマク","town":"中瀬ワールドビジネスガーデン　３階","town_kana":"ナカセワールドビジネスガーデン3カイ","prefecture_code":12},"7104":{"zip_code":"2617104","prefecture":"千葉県","prefecture_kana":"チバケン","city":"千葉市美浜区","city_kana":"チバシミハマク","town":"中瀬ワールドビジネスガーデン　４階","town_kana":"ナカセワールドビジネスガーデン4カイ","prefecture_code":12},"7105":{"zip_code":"2617105","prefecture":"千葉県","prefecture_kana":"チバケン","city":"千葉市美浜区","city_kana":"チバシミハマク","town":"中瀬ワールドビジネスガーデン　５階","town_kana":"ナカセワールドビジネスガーデン5カイ","prefecture_code":12},"7106":{"zip_code":"2617106","prefecture":"千葉県","prefecture_kana":"チバケン","city":"千葉市美浜区","city_kana":"チバシミハマク","town":"中瀬ワールドビジネスガーデン　６階","town_kana":"ナカセワールドビジネスガーデン6カイ","prefecture_code":12},"7107":{"zip_code":"2617107","prefecture":"千葉県","prefecture_kana":"チバケン","city":"千葉市美浜区","city_kana":"チバシミハマク","town":"中瀬ワールドビジネスガーデン　７階","town_kana":"ナカセワールドビジネスガーデン7カイ","prefecture_code":12},"7108":{"zip_code":"2617108","prefecture":"千葉県","prefecture_kana":"チバケン","city":"千葉市美浜区","city_kana":"チバシミハマク","town":"中瀬ワールドビジネスガーデン　８階","town_kana":"ナカセワールドビジネスガーデン8カイ","prefecture_code":12},"7109":{"zip_code":"2617109","prefecture":"千葉県","prefecture_kana":"チバケン","city":"千葉市美浜区","city_kana":"チバシミハマク","town":"中瀬ワールドビジネスガーデン　９階","town_kana":"ナカセワールドビジネスガーデン9カイ","prefecture_code":12},"7110":{"zip_code":"2617110","prefecture":"千葉県","prefecture_kana":"チバケン","city":"千葉市美浜区","city_kana":"チバシミハマク","town":"中瀬ワールドビジネスガーデン　１０階","town_kana":"ナカセワールドビジネスガーデン10カイ","prefecture_code":12},"7111":{"zip_code":"2617111","prefecture":"千葉県","prefecture_kana":"チバケン","city":"千葉市美浜区","city_kana":"チバシミハマク","town":"中瀬ワールドビジネスガーデン　１１階","town_kana":"ナカセワールドビジネスガーデン11カイ","prefecture_code":12},"7112":{"zip_code":"2617112","prefecture":"千葉県","prefecture_kana":"チバケン","city":"千葉市美浜区","city_kana":"チバシミハマク","town":"中瀬ワールドビジネスガーデン　１２階","town_kana":"ナカセワールドビジネスガーデン12カイ","prefecture_code":12},"7113":{"zip_code":"2617113","prefecture":"千葉県","prefecture_kana":"チバケン","city":"千葉市美浜区","city_kana":"チバシミハマク","town":"中瀬ワールドビジネスガーデン　１３階","town_kana":"ナカセワールドビジネスガーデン13カイ","prefecture_code":12},"7114":{"zip_code":"2617114","prefecture":"千葉県","prefecture_kana":"チバケン","city":"千葉市美浜区","city_kana":"チバシミハマク","town":"中瀬ワールドビジネスガーデン　１４階","town_kana":"ナカセワールドビジネスガーデン14カイ","prefecture_code":12},"7115":{"zip_code":"2617115","prefecture":"千葉県","prefecture_kana":"チバケン","city":"千葉市美浜区","city_kana":"チバシミハマク","town":"中瀬ワールドビジネスガーデン　１５階","town_kana":"ナカセワールドビジネスガーデン15カイ","prefecture_code":12},"7116":{"zip_code":"2617116","prefecture":"千葉県","prefecture_kana":"チバケン","city":"千葉市美浜区","city_kana":"チバシミハマク","town":"中瀬ワールドビジネスガーデン　１６階","town_kana":"ナカセワールドビジネスガーデン16カイ","prefecture_code":12},"7117":{"zip_code":"2617117","prefecture":"千葉県","prefecture_kana":"チバケン","city":"千葉市美浜区","city_kana":"チバシミハマク","town":"中瀬ワールドビジネスガーデン　１７階","town_kana":"ナカセワールドビジネスガーデン17カイ","prefecture_code":12},"7118":{"zip_code":"2617118","prefecture":"千葉県","prefecture_kana":"チバケン","city":"千葉市美浜区","city_kana":"チバシミハマク","town":"中瀬ワールドビジネスガーデン　１８階","town_kana":"ナカセワールドビジネスガーデン18カイ","prefecture_code":12},"7119":{"zip_code":"2617119","prefecture":"千葉県","prefecture_kana":"チバケン","city":"千葉市美浜区","city_kana":"チバシミハマク","town":"中瀬ワールドビジネスガーデン　１９階","town_kana":"ナカセワールドビジネスガーデン19カイ","prefecture_code":12},"7120":{"zip_code":"2617120","prefecture":"千葉県","prefecture_kana":"チバケン","city":"千葉市美浜区","city_kana":"チバシミハマク","town":"中瀬ワールドビジネスガーデン　２０階","town_kana":"ナカセワールドビジネスガーデン20カイ","prefecture_code":12},"7121":{"zip_code":"2617121","prefecture":"千葉県","prefecture_kana":"チバケン","city":"千葉市美浜区","city_kana":"チバシミハマク","town":"中瀬ワールドビジネスガーデン　２１階","town_kana":"ナカセワールドビジネスガーデン21カイ","prefecture_code":12},"7122":{"zip_code":"2617122","prefecture":"千葉県","prefecture_kana":"チバケン","city":"千葉市美浜区","city_kana":"チバシミハマク","town":"中瀬ワールドビジネスガーデン　２２階","town_kana":"ナカセワールドビジネスガーデン22カイ","prefecture_code":12},"7123":{"zip_code":"2617123","prefecture":"千葉県","prefecture_kana":"チバケン","city":"千葉市美浜区","city_kana":"チバシミハマク","town":"中瀬ワールドビジネスガーデン　２３階","town_kana":"ナカセワールドビジネスガーデン23カイ","prefecture_code":12},"7124":{"zip_code":"2617124","prefecture":"千葉県","prefecture_kana":"チバケン","city":"千葉市美浜区","city_kana":"チバシミハマク","town":"中瀬ワールドビジネスガーデン　２４階","town_kana":"ナカセワールドビジネスガーデン24カイ","prefecture_code":12},"7125":{"zip_code":"2617125","prefecture":"千葉県","prefecture_kana":"チバケン","city":"千葉市美浜区","city_kana":"チバシミハマク","town":"中瀬ワールドビジネスガーデン　２５階","town_kana":"ナカセワールドビジネスガーデン25カイ","prefecture_code":12},"7126":{"zip_code":"2617126","prefecture":"千葉県","prefecture_kana":"チバケン","city":"千葉市美浜区","city_kana":"チバシミハマク","town":"中瀬ワールドビジネスガーデン　２６階","town_kana":"ナカセワールドビジネスガーデン26カイ","prefecture_code":12},"7127":{"zip_code":"2617127","prefecture":"千葉県","prefecture_kana":"チバケン","city":"千葉市美浜区","city_kana":"チバシミハマク","town":"中瀬ワールドビジネスガーデン　２７階","town_kana":"ナカセワールドビジネスガーデン27カイ","prefecture_code":12},"7128":{"zip_code":"2617128","prefecture":"千葉県","prefecture_kana":"チバケン","city":"千葉市美浜区","city_kana":"チバシミハマク","town":"中瀬ワールドビジネスガーデン　２８階","town_kana":"ナカセワールドビジネスガーデン28カイ","prefecture_code":12},"7129":{"zip_code":"2617129","prefecture":"千葉県","prefecture_kana":"チバケン","city":"千葉市美浜区","city_kana":"チバシミハマク","town":"中瀬ワールドビジネスガーデン　２９階","town_kana":"ナカセワールドビジネスガーデン29カイ","prefecture_code":12},"7130":{"zip_code":"2617130","prefecture":"千葉県","prefecture_kana":"チバケン","city":"千葉市美浜区","city_kana":"チバシミハマク","town":"中瀬ワールドビジネスガーデン　３０階","town_kana":"ナカセワールドビジネスガーデン30カイ","prefecture_code":12},"7131":{"zip_code":"2617131","prefecture":"千葉県","prefecture_kana":"チバケン","city":"千葉市美浜区","city_kana":"チバシミハマク","town":"中瀬ワールドビジネスガーデン　３１階","town_kana":"ナカセワールドビジネスガーデン31カイ","prefecture_code":12},"7132":{"zip_code":"2617132","prefecture":"千葉県","prefecture_kana":"チバケン","city":"千葉市美浜区","city_kana":"チバシミハマク","town":"中瀬ワールドビジネスガーデン　３２階","town_kana":"ナカセワールドビジネスガーデン32カイ","prefecture_code":12},"7133":{"zip_code":"2617133","prefecture":"千葉県","prefecture_kana":"チバケン","city":"千葉市美浜区","city_kana":"チバシミハマク","town":"中瀬ワールドビジネスガーデン　３３階","town_kana":"ナカセワールドビジネスガーデン33カイ","prefecture_code":12},"7134":{"zip_code":"2617134","prefecture":"千葉県","prefecture_kana":"チバケン","city":"千葉市美浜区","city_kana":"チバシミハマク","town":"中瀬ワールドビジネスガーデン　３４階","town_kana":"ナカセワールドビジネスガーデン34カイ","prefecture_code":12},"7135":{"zip_code":"2617135","prefecture":"千葉県","prefecture_kana":"チバケン","city":"千葉市美浜区","city_kana":"チバシミハマク","town":"中瀬ワールドビジネスガーデン　３５階","town_kana":"ナカセワールドビジネスガーデン35カイ","prefecture_code":12},"0025":{"zip_code":"2610025","prefecture":"千葉県","prefecture_kana":"チバケン","city":"千葉市美浜区","city_kana":"チバシミハマク","town":"浜田","town_kana":"ハマダ","prefecture_code":12},"0021":{"zip_code":"2610021","prefecture":"千葉県","prefecture_kana":"チバケン","city":"千葉市美浜区","city_kana":"チバシミハマク","town":"ひび野","town_kana":"ヒビノ","prefecture_code":12},"0026":{"zip_code":"2610026","prefecture":"千葉県","prefecture_kana":"チバケン","city":"千葉市美浜区","city_kana":"チバシミハマク","town":"幕張西","town_kana":"マクハリニシ","prefecture_code":12},"0011":{"zip_code":"2610011","prefecture":"千葉県","prefecture_kana":"チバケン","city":"千葉市美浜区","city_kana":"チバシミハマク","town":"真砂","town_kana":"マサゴ","prefecture_code":12},"0022":{"zip_code":"2610022","prefecture":"千葉県","prefecture_kana":"チバケン","city":"千葉市美浜区","city_kana":"チバシミハマク","town":"美浜","town_kana":"ミハマ","prefecture_code":12},"0014":{"zip_code":"2610014","prefecture":"千葉県","prefecture_kana":"チバケン","city":"千葉市美浜区","city_kana":"チバシミハマク","town":"若葉","town_kana":"ワカバ","prefecture_code":12}}