{"0063":{"zip_code":"2650063","prefecture":"千葉県","prefecture_kana":"チバケン","city":"千葉市若葉区","city_kana":"チバシワカバク","town":"五十土町","town_kana":"イカヅチチョウ","prefecture_code":12},"0052":{"zip_code":"2650052","prefecture":"千葉県","prefecture_kana":"チバケン","city":"千葉市若葉区","city_kana":"チバシワカバク","town":"和泉町","town_kana":"イズミチョウ","prefecture_code":12},"0075":{"zip_code":"2650075","prefecture":"千葉県","prefecture_kana":"チバケン","city":"千葉市若葉区","city_kana":"チバシワカバク","town":"大井戸町","town_kana":"オオイドチョウ","prefecture_code":12},"0064":{"zip_code":"2650064","prefecture":"千葉県","prefecture_kana":"チバケン","city":"千葉市若葉区","city_kana":"チバシワカバク","town":"大広町","town_kana":"オオヒロチョウ","prefecture_code":12},"0077":{"zip_code":"2650077","prefecture":"千葉県","prefecture_kana":"チバケン","city":"千葉市若葉区","city_kana":"チバシワカバク","town":"御成台","town_kana":"オナリダイ","prefecture_code":12},"0046":{"zip_code":"2650046","prefecture":"千葉県","prefecture_kana":"チバケン","city":"千葉市若葉区","city_kana":"チバシワカバク","town":"小間子町","town_kana":"オマゴチョウ","prefecture_code":12},"0045":{"zip_code":"2650045","prefecture":"千葉県","prefecture_kana":"チバケン","city":"千葉市若葉区","city_kana":"チバシワカバク","town":"上泉町","town_kana":"カミイズミチョウ","prefecture_code":12},"0062":{"zip_code":"2650062","prefecture":"千葉県","prefecture_kana":"チバケン","city":"千葉市若葉区","city_kana":"チバシワカバク","town":"川井町","town_kana":"カワイチョウ","prefecture_code":12},"0067":{"zip_code":"2650067","prefecture":"千葉県","prefecture_kana":"チバケン","city":"千葉市若葉区","city_kana":"チバシワカバク","town":"北谷津町","town_kana":"キタヤツチョウ","prefecture_code":12},"0042":{"zip_code":"2650042","prefecture":"千葉県","prefecture_kana":"チバケン","city":"千葉市若葉区","city_kana":"チバシワカバク","town":"古泉町","town_kana":"コイズミチョウ","prefecture_code":12},"0074":{"zip_code":"2650074","prefecture":"千葉県","prefecture_kana":"チバケン","city":"千葉市若葉区","city_kana":"チバシワカバク","town":"御殿町","town_kana":"ゴテンチョウ","prefecture_code":12},"0073":{"zip_code":"2650073","prefecture":"千葉県","prefecture_kana":"チバケン","city":"千葉市若葉区","city_kana":"チバシワカバク","town":"更科町","town_kana":"サラシナチョウ","prefecture_code":12},"0065":{"zip_code":"2650065","prefecture":"千葉県","prefecture_kana":"チバケン","city":"千葉市若葉区","city_kana":"チバシワカバク","town":"佐和町","town_kana":"サワチョウ","prefecture_code":12},"0044":{"zip_code":"2650044","prefecture":"千葉県","prefecture_kana":"チバケン","city":"千葉市若葉区","city_kana":"チバシワカバク","town":"下泉町","town_kana":"シモイズミチョウ","prefecture_code":12},"0076":{"zip_code":"2650076","prefecture":"千葉県","prefecture_kana":"チバケン","city":"千葉市若葉区","city_kana":"チバシワカバク","town":"下田町","town_kana":"シモダチョウ","prefecture_code":12},"0061":{"zip_code":"2650061","prefecture":"千葉県","prefecture_kana":"チバケン","city":"千葉市若葉区","city_kana":"チバシワカバク","town":"高根町","town_kana":"タカネチョウ","prefecture_code":12},"0066":{"zip_code":"2650066","prefecture":"千葉県","prefecture_kana":"チバケン","city":"千葉市若葉区","city_kana":"チバシワカバク","town":"多部田町","town_kana":"タベタチョウ","prefecture_code":12},"0071":{"zip_code":"2650071","prefecture":"千葉県","prefecture_kana":"チバケン","city":"千葉市若葉区","city_kana":"チバシワカバク","town":"旦谷町","town_kana":"ダンヤチョウ","prefecture_code":12},"0041":{"zip_code":"2650041","prefecture":"千葉県","prefecture_kana":"チバケン","city":"千葉市若葉区","city_kana":"チバシワカバク","town":"富田町","town_kana":"トミタチョウ","prefecture_code":12},"0043":{"zip_code":"2650043","prefecture":"千葉県","prefecture_kana":"チバケン","city":"千葉市若葉区","city_kana":"チバシワカバク","town":"中田町","town_kana":"ナカタチョウ","prefecture_code":12},"0051":{"zip_code":"2650051","prefecture":"千葉県","prefecture_kana":"チバケン","city":"千葉市若葉区","city_kana":"チバシワカバク","town":"中野町","town_kana":"ナカノチョウ","prefecture_code":12},"0053":{"zip_code":"2650053","prefecture":"千葉県","prefecture_kana":"チバケン","city":"千葉市若葉区","city_kana":"チバシワカバク","town":"野呂町","town_kana":"ノロチョウ","prefecture_code":12},"0072":{"zip_code":"2650072","prefecture":"千葉県","prefecture_kana":"チバケン","city":"千葉市若葉区","city_kana":"チバシワカバク","town":"谷当町","town_kana":"ヤトウチョウ","prefecture_code":12}}