{"0043":{"zip_code":"2710043","prefecture":"千葉県","prefecture_kana":"チバケン","city":"松戸市","city_kana":"マツドシ","town":"旭町","town_kana":"アサヒチョウ","prefecture_code":12},"0076":{"zip_code":"2710076","prefecture":"千葉県","prefecture_kana":"チバケン","city":"松戸市","city_kana":"マツドシ","town":"岩瀬","town_kana":"イワセ","prefecture_code":12},"0064":{"zip_code":"2710064","prefecture":"千葉県","prefecture_kana":"チバケン","city":"松戸市","city_kana":"マツドシ","town":"上本郷","town_kana":"カミホンゴウ","prefecture_code":12},"0094":{"zip_code":"2710094","prefecture":"千葉県","prefecture_kana":"チバケン","city":"松戸市","city_kana":"マツドシ","town":"上矢切","town_kana":"カミヤキリ","prefecture_code":12},"0063":{"zip_code":"2710063","prefecture":"千葉県","prefecture_kana":"チバケン","city":"松戸市","city_kana":"マツドシ","town":"北松戸","town_kana":"キタマツド","prefecture_code":12},"0097":{"zip_code":"2710097","prefecture":"千葉県","prefecture_kana":"チバケン","city":"松戸市","city_kana":"マツドシ","town":"栗山","town_kana":"クリヤマ","prefecture_code":12},"0068":{"zip_code":"2710068","prefecture":"千葉県","prefecture_kana":"チバケン","city":"松戸市","city_kana":"マツドシ","town":"古ケ崎","town_kana":"コガサキ","prefecture_code":12},"0073":{"zip_code":"2710073","prefecture":"千葉県","prefecture_kana":"チバケン","city":"松戸市","city_kana":"マツドシ","town":"小根本","town_kana":"コネモト","prefecture_code":12},"0093":{"zip_code":"2710093","prefecture":"千葉県","prefecture_kana":"チバケン","city":"松戸市","city_kana":"マツドシ","town":"小山","town_kana":"コヤマ","prefecture_code":12},"0075":{"zip_code":"2710075","prefecture":"千葉県","prefecture_kana":"チバケン","city":"松戸市","city_kana":"マツドシ","town":"胡録台","town_kana":"コロクダイ","prefecture_code":12},"0062":{"zip_code":"2710062","prefecture":"千葉県","prefecture_kana":"チバケン","city":"松戸市","city_kana":"マツドシ","town":"栄町","town_kana":"サカエチョウ","prefecture_code":12},"0061":{"zip_code":"2710061","prefecture":"千葉県","prefecture_kana":"チバケン","city":"松戸市","city_kana":"マツドシ","town":"栄町西","town_kana":"サカエチョウニシ","prefecture_code":12},"0041":{"zip_code":"2710041","prefecture":"千葉県","prefecture_kana":"チバケン","city":"松戸市","city_kana":"マツドシ","town":"七右衛門新田","town_kana":"シチウエモンシンデン","prefecture_code":12},"0096":{"zip_code":"2710096","prefecture":"千葉県","prefecture_kana":"チバケン","city":"松戸市","city_kana":"マツドシ","town":"下矢切","town_kana":"シモヤキリ","prefecture_code":12},"0052":{"zip_code":"2710052","prefecture":"千葉県","prefecture_kana":"チバケン","city":"松戸市","city_kana":"マツドシ","town":"新作","town_kana":"シンザク","prefecture_code":12},"0072":{"zip_code":"2710072","prefecture":"千葉県","prefecture_kana":"チバケン","city":"松戸市","city_kana":"マツドシ","town":"竹ケ花","town_kana":"タケガハナ","prefecture_code":12},"0071":{"zip_code":"2710071","prefecture":"千葉県","prefecture_kana":"チバケン","city":"松戸市","city_kana":"マツドシ","town":"竹ケ花西町","town_kana":"タケガハナニシマチ","prefecture_code":12},"0053":{"zip_code":"2710053","prefecture":"千葉県","prefecture_kana":"チバケン","city":"松戸市","city_kana":"マツドシ","town":"中根","town_kana":"ナカネ","prefecture_code":12},"0054":{"zip_code":"2710054","prefecture":"千葉県","prefecture_kana":"チバケン","city":"松戸市","city_kana":"マツドシ","town":"中根長津町","town_kana":"ナカネナガツチョウ","prefecture_code":12},"0095":{"zip_code":"2710095","prefecture":"千葉県","prefecture_kana":"チバケン","city":"松戸市","city_kana":"マツドシ","town":"中矢切","town_kana":"ナカヤキリ","prefecture_code":12},"0044":{"zip_code":"2710044","prefecture":"千葉県","prefecture_kana":"チバケン","city":"松戸市","city_kana":"マツドシ","town":"西馬橋","town_kana":"ニシマバシ","prefecture_code":12},"0045":{"zip_code":"2710045","prefecture":"千葉県","prefecture_kana":"チバケン","city":"松戸市","city_kana":"マツドシ","town":"西馬橋相川町","town_kana":"ニシマバシアイカワチョウ","prefecture_code":12},"0046":{"zip_code":"2710046","prefecture":"千葉県","prefecture_kana":"チバケン","city":"松戸市","city_kana":"マツドシ","town":"西馬橋蔵元町","town_kana":"ニシマバシクラモトチョウ","prefecture_code":12},"0047":{"zip_code":"2710047","prefecture":"千葉県","prefecture_kana":"チバケン","city":"松戸市","city_kana":"マツドシ","town":"西馬橋幸町","town_kana":"ニシマバシサイワイチョウ","prefecture_code":12},"0048":{"zip_code":"2710048","prefecture":"千葉県","prefecture_kana":"チバケン","city":"松戸市","city_kana":"マツドシ","town":"西馬橋広手町","town_kana":"ニシマバシヒロテチョウ","prefecture_code":12},"0088":{"zip_code":"2710088","prefecture":"千葉県","prefecture_kana":"チバケン","city":"松戸市","city_kana":"マツドシ","town":"二十世紀が丘柿の木町","town_kana":"ニジュッセイキガオカカキノキチョウ","prefecture_code":12},"0082":{"zip_code":"2710082","prefecture":"千葉県","prefecture_kana":"チバケン","city":"松戸市","city_kana":"マツドシ","town":"二十世紀が丘戸山町","town_kana":"ニジュッセイキガオカトヤマチョウ","prefecture_code":12},"0085":{"zip_code":"2710085","prefecture":"千葉県","prefecture_kana":"チバケン","city":"松戸市","city_kana":"マツドシ","town":"二十世紀が丘中松町","town_kana":"ニジュッセイキガオカナカマツチョウ","prefecture_code":12},"0083":{"zip_code":"2710083","prefecture":"千葉県","prefecture_kana":"チバケン","city":"松戸市","city_kana":"マツドシ","town":"二十世紀が丘梨元町","town_kana":"ニジュッセイキガオカナシモトチョウ","prefecture_code":12},"0086":{"zip_code":"2710086","prefecture":"千葉県","prefecture_kana":"チバケン","city":"松戸市","city_kana":"マツドシ","town":"二十世紀が丘萩町","town_kana":"ニジュッセイキガオカハギチョウ","prefecture_code":12},"0084":{"zip_code":"2710084","prefecture":"千葉県","prefecture_kana":"チバケン","city":"松戸市","city_kana":"マツドシ","town":"二十世紀が丘丸山町","town_kana":"ニジュッセイキガオカマルヤマチョウ","prefecture_code":12},"0081":{"zip_code":"2710081","prefecture":"千葉県","prefecture_kana":"チバケン","city":"松戸市","city_kana":"マツドシ","town":"二十世紀が丘美野里町","town_kana":"ニジュッセイキガオカミノリチョウ","prefecture_code":12},"0077":{"zip_code":"2710077","prefecture":"千葉県","prefecture_kana":"チバケン","city":"松戸市","city_kana":"マツドシ","town":"根本","town_kana":"ネモト","prefecture_code":12},"0067":{"zip_code":"2710067","prefecture":"千葉県","prefecture_kana":"チバケン","city":"松戸市","city_kana":"マツドシ","town":"樋野口","town_kana":"ヒノクチ","prefecture_code":12},"0091":{"zip_code":"2710091","prefecture":"千葉県","prefecture_kana":"チバケン","city":"松戸市","city_kana":"マツドシ","town":"本町","town_kana":"ホンチョウ","prefecture_code":12},"0092":{"zip_code":"2710092","prefecture":"千葉県","prefecture_kana":"チバケン","city":"松戸市","city_kana":"マツドシ","town":"松戸","town_kana":"マツド","prefecture_code":12},"0051":{"zip_code":"2710051","prefecture":"千葉県","prefecture_kana":"チバケン","city":"松戸市","city_kana":"マツドシ","town":"馬橋","town_kana":"マバシ","prefecture_code":12},"0074":{"zip_code":"2710074","prefecture":"千葉県","prefecture_kana":"チバケン","city":"松戸市","city_kana":"マツドシ","town":"緑ケ丘","town_kana":"ミドリガオカ","prefecture_code":12},"0065":{"zip_code":"2710065","prefecture":"千葉県","prefecture_kana":"チバケン","city":"松戸市","city_kana":"マツドシ","town":"南花島","town_kana":"ミナミハナシマ","prefecture_code":12},"0087":{"zip_code":"2710087","prefecture":"千葉県","prefecture_kana":"チバケン","city":"松戸市","city_kana":"マツドシ","town":"三矢小台","town_kana":"ミヤコダイ","prefecture_code":12},"0042":{"zip_code":"2710042","prefecture":"千葉県","prefecture_kana":"チバケン","city":"松戸市","city_kana":"マツドシ","town":"主水新田","town_kana":"モントシンデン","prefecture_code":12},"0066":{"zip_code":"2710066","prefecture":"千葉県","prefecture_kana":"チバケン","city":"松戸市","city_kana":"マツドシ","town":"吉井町","town_kana":"ヨシイチョウ","prefecture_code":12}}