{"0066":{"zip_code":"2740066","prefecture":"千葉県","prefecture_kana":"チバケン","city":"船橋市","city_kana":"フナバシシ","town":"大穴町","town_kana":"オオアナチョウ","prefecture_code":12},"0067":{"zip_code":"2740067","prefecture":"千葉県","prefecture_kana":"チバケン","city":"船橋市","city_kana":"フナバシシ","town":"大穴南","town_kana":"オオアナミナミ","prefecture_code":12},"0068":{"zip_code":"2740068","prefecture":"千葉県","prefecture_kana":"チバケン","city":"船橋市","city_kana":"フナバシシ","town":"大穴北","town_kana":"オオアナキタ","prefecture_code":12},"0082":{"zip_code":"2740082","prefecture":"千葉県","prefecture_kana":"チバケン","city":"船橋市","city_kana":"フナバシシ","town":"大神保町","town_kana":"オオジンボウチョウ","prefecture_code":12},"0054":{"zip_code":"2740054","prefecture":"千葉県","prefecture_kana":"チバケン","city":"船橋市","city_kana":"フナバシシ","town":"金堀町","town_kana":"カネホリチョウ","prefecture_code":12},"0055":{"zip_code":"2740055","prefecture":"千葉県","prefecture_kana":"チバケン","city":"船橋市","city_kana":"フナバシシ","town":"楠が山町","town_kana":"クスガヤマチョウ","prefecture_code":12},"0051":{"zip_code":"2740051","prefecture":"千葉県","prefecture_kana":"チバケン","city":"船橋市","city_kana":"フナバシシ","town":"車方町","town_kana":"クルマガタチョウ","prefecture_code":12},"0801":{"zip_code":"2740801","prefecture":"千葉県","prefecture_kana":"チバケン","city":"船橋市","city_kana":"フナバシシ","town":"高野台","town_kana":"コウヤダイ","prefecture_code":12},"0081":{"zip_code":"2740081","prefecture":"千葉県","prefecture_kana":"チバケン","city":"船橋市","city_kana":"フナバシシ","town":"小野田町","town_kana":"コノダチョウ","prefecture_code":12},"0061":{"zip_code":"2740061","prefecture":"千葉県","prefecture_kana":"チバケン","city":"船橋市","city_kana":"フナバシシ","town":"古和釜町","town_kana":"コワガマチョウ","prefecture_code":12},"0807":{"zip_code":"2740807","prefecture":"千葉県","prefecture_kana":"チバケン","city":"船橋市","city_kana":"フナバシシ","town":"咲が丘","town_kana":"サキガオカ","prefecture_code":12},"0816":{"zip_code":"2740816","prefecture":"千葉県","prefecture_kana":"チバケン","city":"船橋市","city_kana":"フナバシシ","town":"芝山","town_kana":"シバヤマ","prefecture_code":12},"0814":{"zip_code":"2740814","prefecture":"千葉県","prefecture_kana":"チバケン","city":"船橋市","city_kana":"フナバシシ","town":"新高根","town_kana":"シンタカネ","prefecture_code":12},"0056":{"zip_code":"2740056","prefecture":"千葉県","prefecture_kana":"チバケン","city":"船橋市","city_kana":"フナバシシ","town":"神保町","town_kana":"ジンボウチョウ","prefecture_code":12},"0052":{"zip_code":"2740052","prefecture":"千葉県","prefecture_kana":"チバケン","city":"船橋市","city_kana":"フナバシシ","town":"鈴身町","town_kana":"スズミチョウ","prefecture_code":12},"0065":{"zip_code":"2740065","prefecture":"千葉県","prefecture_kana":"チバケン","city":"船橋市","city_kana":"フナバシシ","town":"高根台","town_kana":"タカネダイ","prefecture_code":12},"0817":{"zip_code":"2740817","prefecture":"千葉県","prefecture_kana":"チバケン","city":"船橋市","city_kana":"フナバシシ","town":"高根町","town_kana":"タカネチョウ","prefecture_code":12},"0074":{"zip_code":"2740074","prefecture":"千葉県","prefecture_kana":"チバケン","city":"船橋市","city_kana":"フナバシシ","town":"滝台","town_kana":"タキダイ","prefecture_code":12},"0075":{"zip_code":"2740075","prefecture":"千葉県","prefecture_kana":"チバケン","city":"船橋市","city_kana":"フナバシシ","town":"滝台町","town_kana":"タキダイチョウ","prefecture_code":12},"0073":{"zip_code":"2740073","prefecture":"千葉県","prefecture_kana":"チバケン","city":"船橋市","city_kana":"フナバシシ","town":"田喜野井","town_kana":"タキノイ","prefecture_code":12},"0062":{"zip_code":"2740062","prefecture":"千葉県","prefecture_kana":"チバケン","city":"船橋市","city_kana":"フナバシシ","town":"坪井町","town_kana":"ツボイチョウ","prefecture_code":12},"0060":{"zip_code":"2740060","prefecture":"千葉県","prefecture_kana":"チバケン","city":"船橋市","city_kana":"フナバシシ","town":"坪井東","town_kana":"ツボイヒガシ","prefecture_code":12},"0069":{"zip_code":"2740069","prefecture":"千葉県","prefecture_kana":"チバケン","city":"船橋市","city_kana":"フナバシシ","town":"坪井西","town_kana":"ツボイニシ","prefecture_code":12},"0053":{"zip_code":"2740053","prefecture":"千葉県","prefecture_kana":"チバケン","city":"船橋市","city_kana":"フナバシシ","town":"豊富町","town_kana":"トヨトミチョウ","prefecture_code":12},"0826":{"zip_code":"2740826","prefecture":"千葉県","prefecture_kana":"チバケン","city":"船橋市","city_kana":"フナバシシ","town":"中野木","town_kana":"ナカノキ","prefecture_code":12},"0821":{"zip_code":"2740821","prefecture":"千葉県","prefecture_kana":"チバケン","city":"船橋市","city_kana":"フナバシシ","town":"七林町","town_kana":"ナナバヤシチョウ","prefecture_code":12},"0071":{"zip_code":"2740071","prefecture":"千葉県","prefecture_kana":"チバケン","city":"船橋市","city_kana":"フナバシシ","town":"習志野","town_kana":"ナラシノ","prefecture_code":12},"0063":{"zip_code":"2740063","prefecture":"千葉県","prefecture_kana":"チバケン","city":"船橋市","city_kana":"フナバシシ","town":"習志野台","town_kana":"ナラシノダイ","prefecture_code":12},"0815":{"zip_code":"2740815","prefecture":"千葉県","prefecture_kana":"チバケン","city":"船橋市","city_kana":"フナバシシ","town":"西習志野","town_kana":"ニシナラシノ","prefecture_code":12},"0823":{"zip_code":"2740823","prefecture":"千葉県","prefecture_kana":"チバケン","city":"船橋市","city_kana":"フナバシシ","town":"二宮","town_kana":"ニノミヤ","prefecture_code":12},"0822":{"zip_code":"2740822","prefecture":"千葉県","prefecture_kana":"チバケン","city":"船橋市","city_kana":"フナバシシ","town":"飯山満町","town_kana":"ハサマチョウ","prefecture_code":12},"0805":{"zip_code":"2740805","prefecture":"千葉県","prefecture_kana":"チバケン","city":"船橋市","city_kana":"フナバシシ","town":"二和東","town_kana":"フタワヒガシ","prefecture_code":12},"0806":{"zip_code":"2740806","prefecture":"千葉県","prefecture_kana":"チバケン","city":"船橋市","city_kana":"フナバシシ","town":"二和西","town_kana":"フタワニシ","prefecture_code":12},"0824":{"zip_code":"2740824","prefecture":"千葉県","prefecture_kana":"チバケン","city":"船橋市","city_kana":"フナバシシ","town":"前原東","town_kana":"マエバラヒガシ","prefecture_code":12},"0825":{"zip_code":"2740825","prefecture":"千葉県","prefecture_kana":"チバケン","city":"船橋市","city_kana":"フナバシシ","town":"前原西","town_kana":"マエバラニシ","prefecture_code":12},"0064":{"zip_code":"2740064","prefecture":"千葉県","prefecture_kana":"チバケン","city":"船橋市","city_kana":"フナバシシ","town":"松が丘","town_kana":"マツガオカ","prefecture_code":12},"0812":{"zip_code":"2740812","prefecture":"千葉県","prefecture_kana":"チバケン","city":"船橋市","city_kana":"フナバシシ","town":"三咲","town_kana":"ミサキ","prefecture_code":12},"0811":{"zip_code":"2740811","prefecture":"千葉県","prefecture_kana":"チバケン","city":"船橋市","city_kana":"フナバシシ","town":"三咲町","town_kana":"ミサキチョウ","prefecture_code":12},"0818":{"zip_code":"2740818","prefecture":"千葉県","prefecture_kana":"チバケン","city":"船橋市","city_kana":"フナバシシ","town":"緑台","town_kana":"ミドリダイ","prefecture_code":12},"0813":{"zip_code":"2740813","prefecture":"千葉県","prefecture_kana":"チバケン","city":"船橋市","city_kana":"フナバシシ","town":"南三咲","town_kana":"ミナミミサキ","prefecture_code":12},"0804":{"zip_code":"2740804","prefecture":"千葉県","prefecture_kana":"チバケン","city":"船橋市","city_kana":"フナバシシ","town":"みやぎ台","town_kana":"ミヤギダイ","prefecture_code":12},"0072":{"zip_code":"2740072","prefecture":"千葉県","prefecture_kana":"チバケン","city":"船橋市","city_kana":"フナバシシ","town":"三山","town_kana":"ミヤマ","prefecture_code":12},"0802":{"zip_code":"2740802","prefecture":"千葉県","prefecture_kana":"チバケン","city":"船橋市","city_kana":"フナバシシ","town":"八木が谷","town_kana":"ヤキガヤ","prefecture_code":12},"0803":{"zip_code":"2740803","prefecture":"千葉県","prefecture_kana":"チバケン","city":"船橋市","city_kana":"フナバシシ","town":"八木が谷町","town_kana":"ヤキガヤチョウ","prefecture_code":12},"0077":{"zip_code":"2740077","prefecture":"千葉県","prefecture_kana":"チバケン","city":"船橋市","city_kana":"フナバシシ","town":"薬円台","town_kana":"ヤクエンダイ","prefecture_code":12},"0076":{"zip_code":"2740076","prefecture":"千葉県","prefecture_kana":"チバケン","city":"船橋市","city_kana":"フナバシシ","town":"薬園台町","town_kana":"ヤクエンダイチョウ","prefecture_code":12}}