{"0006":{"zip_code":"4870006","prefecture":"愛知県","prefecture_kana":"アイチケン","city":"春日井市","city_kana":"カスガイシ","town":"石尾台","town_kana":"イシオダイ","prefecture_code":23},"0033":{"zip_code":"4870033","prefecture":"愛知県","prefecture_kana":"アイチケン","city":"春日井市","city_kana":"カスガイシ","town":"岩成台","town_kana":"イワナリダイ","prefecture_code":23},"0024":{"zip_code":"4870024","prefecture":"愛知県","prefecture_kana":"アイチケン","city":"春日井市","city_kana":"カスガイシ","town":"大留町","town_kana":"オオドメチョウ","prefecture_code":23},"0005":{"zip_code":"4870005","prefecture":"愛知県","prefecture_kana":"アイチケン","city":"春日井市","city_kana":"カスガイシ","town":"押沢台","town_kana":"オシザワダイ","prefecture_code":23},"0003":{"zip_code":"4870003","prefecture":"愛知県","prefecture_kana":"アイチケン","city":"春日井市","city_kana":"カスガイシ","town":"木附町","town_kana":"キヅキチョウ","prefecture_code":23},"0014":{"zip_code":"4870014","prefecture":"愛知県","prefecture_kana":"アイチケン","city":"春日井市","city_kana":"カスガイシ","town":"気噴町","town_kana":"キブキチョウ","prefecture_code":23},"0015":{"zip_code":"4870015","prefecture":"愛知県","prefecture_kana":"アイチケン","city":"春日井市","city_kana":"カスガイシ","town":"気噴町北","town_kana":"キブキチョウキタ","prefecture_code":23},"0013":{"zip_code":"4870013","prefecture":"愛知県","prefecture_kana":"アイチケン","city":"春日井市","city_kana":"カスガイシ","town":"高蔵寺町","town_kana":"コウゾウジチョウ","prefecture_code":23},"0016":{"zip_code":"4870016","prefecture":"愛知県","prefecture_kana":"アイチケン","city":"春日井市","city_kana":"カスガイシ","town":"高蔵寺町北","town_kana":"コウゾウジチョウキタ","prefecture_code":23},"0022":{"zip_code":"4870022","prefecture":"愛知県","prefecture_kana":"アイチケン","city":"春日井市","city_kana":"カスガイシ","town":"庄名町","town_kana":"ショウナチョウ","prefecture_code":23},"0034":{"zip_code":"4870034","prefecture":"愛知県","prefecture_kana":"アイチケン","city":"春日井市","city_kana":"カスガイシ","town":"白山町","town_kana":"シラヤマチョウ","prefecture_code":23},"0017":{"zip_code":"4870017","prefecture":"愛知県","prefecture_kana":"アイチケン","city":"春日井市","city_kana":"カスガイシ","town":"高座台","town_kana":"タカクラダイ","prefecture_code":23},"0012":{"zip_code":"4870012","prefecture":"愛知県","prefecture_kana":"アイチケン","city":"春日井市","city_kana":"カスガイシ","town":"高座町","town_kana":"タカクラチョウ","prefecture_code":23},"0032":{"zip_code":"4870032","prefecture":"愛知県","prefecture_kana":"アイチケン","city":"春日井市","city_kana":"カスガイシ","town":"高森台","town_kana":"タカモリダイ","prefecture_code":23},"0007":{"zip_code":"4870007","prefecture":"愛知県","prefecture_kana":"アイチケン","city":"春日井市","city_kana":"カスガイシ","town":"玉野台","town_kana":"タマノダイ","prefecture_code":23},"0004":{"zip_code":"4870004","prefecture":"愛知県","prefecture_kana":"アイチケン","city":"春日井市","city_kana":"カスガイシ","town":"玉野町","town_kana":"タマノチョウ","prefecture_code":23},"0011":{"zip_code":"4870011","prefecture":"愛知県","prefecture_kana":"アイチケン","city":"春日井市","city_kana":"カスガイシ","town":"中央台","town_kana":"チュウオウダイ","prefecture_code":23},"0025":{"zip_code":"4870025","prefecture":"愛知県","prefecture_kana":"アイチケン","city":"春日井市","city_kana":"カスガイシ","town":"出川町","town_kana":"テガワチョウ","prefecture_code":23},"0002":{"zip_code":"4870002","prefecture":"愛知県","prefecture_kana":"アイチケン","city":"春日井市","city_kana":"カスガイシ","town":"外之原町","town_kana":"トノハラチョウ","prefecture_code":23},"0031":{"zip_code":"4870031","prefecture":"愛知県","prefecture_kana":"アイチケン","city":"春日井市","city_kana":"カスガイシ","town":"廻間町","town_kana":"ハザマチョウ","prefecture_code":23},"0021":{"zip_code":"4870021","prefecture":"愛知県","prefecture_kana":"アイチケン","city":"春日井市","city_kana":"カスガイシ","town":"東神明町","town_kana":"ヒガシシンミョウチョウ","prefecture_code":23},"0023":{"zip_code":"4870023","prefecture":"愛知県","prefecture_kana":"アイチケン","city":"春日井市","city_kana":"カスガイシ","town":"不二ガ丘","town_kana":"フジガオカ","prefecture_code":23},"0026":{"zip_code":"4870026","prefecture":"愛知県","prefecture_kana":"アイチケン","city":"春日井市","city_kana":"カスガイシ","town":"不二町","town_kana":"フジチョウ","prefecture_code":23},"0035":{"zip_code":"4870035","prefecture":"愛知県","prefecture_kana":"アイチケン","city":"春日井市","city_kana":"カスガイシ","town":"藤山台","town_kana":"フジヤマダイ","prefecture_code":23},"0001":{"zip_code":"4870001","prefecture":"愛知県","prefecture_kana":"アイチケン","city":"春日井市","city_kana":"カスガイシ","town":"細野町","town_kana":"ホソノチョウ","prefecture_code":23},"0027":{"zip_code":"4870027","prefecture":"愛知県","prefecture_kana":"アイチケン","city":"春日井市","city_kana":"カスガイシ","town":"松本町","town_kana":"マツモトチョウ","prefecture_code":23}}