{"0006":{"zip_code":"4930006","prefecture":"愛知県","prefecture_kana":"アイチケン","city":"一宮市","city_kana":"イチノミヤシ","town":"木曽川町内割田","town_kana":"キソガワチョウウチワリデン","prefecture_code":23},"0002":{"zip_code":"4930002","prefecture":"愛知県","prefecture_kana":"アイチケン","city":"一宮市","city_kana":"イチノミヤシ","town":"木曽川町門間","town_kana":"キソガワチョウカドマ","prefecture_code":23},"0001":{"zip_code":"4930001","prefecture":"愛知県","prefecture_kana":"アイチケン","city":"一宮市","city_kana":"イチノミヤシ","town":"木曽川町黒田","town_kana":"キソガワチョウクロダ","prefecture_code":23},"0005":{"zip_code":"4930005","prefecture":"愛知県","prefecture_kana":"アイチケン","city":"一宮市","city_kana":"イチノミヤシ","town":"木曽川町里小牧","town_kana":"キソガワチョウサトコマキ","prefecture_code":23},"0007":{"zip_code":"4930007","prefecture":"愛知県","prefecture_kana":"アイチケン","city":"一宮市","city_kana":"イチノミヤシ","town":"木曽川町外割田","town_kana":"キソガワチョウソトワリデン","prefecture_code":23},"0004":{"zip_code":"4930004","prefecture":"愛知県","prefecture_kana":"アイチケン","city":"一宮市","city_kana":"イチノミヤシ","town":"木曽川町玉ノ井","town_kana":"キソガワチョウタマノイ","prefecture_code":23},"0003":{"zip_code":"4930003","prefecture":"愛知県","prefecture_kana":"アイチケン","city":"一宮市","city_kana":"イチノミヤシ","town":"木曽川町三ツ法寺","town_kana":"キソガワチョウミツホウジ","prefecture_code":23},"8001":{"zip_code":"4938001","prefecture":"愛知県","prefecture_kana":"アイチケン","city":"一宮市","city_kana":"イチノミヤシ","town":"北方町北方","town_kana":"キタガタチョウキタガタ","prefecture_code":23},"8002":{"zip_code":"4938002","prefecture":"愛知県","prefecture_kana":"アイチケン","city":"一宮市","city_kana":"イチノミヤシ","town":"北方町曽根","town_kana":"キタガタチョウソネ","prefecture_code":23},"8003":{"zip_code":"4938003","prefecture":"愛知県","prefecture_kana":"アイチケン","city":"一宮市","city_kana":"イチノミヤシ","town":"北方町中島","town_kana":"キタガタチョウナカジマ","prefecture_code":23}}