{"0802":{"zip_code":"5650802","prefecture":"大阪府","prefecture_kana":"オオサカフ","city":"吹田市","city_kana":"スイタシ","town":"青葉丘南","town_kana":"アオバオカミナミ","prefecture_code":27},"0801":{"zip_code":"5650801","prefecture":"大阪府","prefecture_kana":"オオサカフ","city":"吹田市","city_kana":"スイタシ","town":"青葉丘北","town_kana":"アオバオカキタ","prefecture_code":27},"0875":{"zip_code":"5650875","prefecture":"大阪府","prefecture_kana":"オオサカフ","city":"吹田市","city_kana":"スイタシ","town":"青山台","town_kana":"アオヤマダイ","prefecture_code":27},"0806":{"zip_code":"5650806","prefecture":"大阪府","prefecture_kana":"オオサカフ","city":"吹田市","city_kana":"スイタシ","town":"樫切山","town_kana":"カシキリヤマ","prefecture_code":27},"0853":{"zip_code":"5650853","prefecture":"大阪府","prefecture_kana":"オオサカフ","city":"吹田市","city_kana":"スイタシ","town":"春日","town_kana":"カスガ","prefecture_code":27},"0872":{"zip_code":"5650872","prefecture":"大阪府","prefecture_kana":"オオサカフ","city":"吹田市","city_kana":"スイタシ","town":"上山田","town_kana":"カミヤマダ","prefecture_code":27},"0841":{"zip_code":"5650841","prefecture":"大阪府","prefecture_kana":"オオサカフ","city":"吹田市","city_kana":"スイタシ","town":"上山手町","town_kana":"カミヤマテチョウ","prefecture_code":27},"0836":{"zip_code":"5650836","prefecture":"大阪府","prefecture_kana":"オオサカフ","city":"吹田市","city_kana":"スイタシ","town":"佐井寺","town_kana":"サイデラ","prefecture_code":27},"0837":{"zip_code":"5650837","prefecture":"大阪府","prefecture_kana":"オオサカフ","city":"吹田市","city_kana":"スイタシ","town":"佐井寺南が丘","town_kana":"サイデラミナミガオカ","prefecture_code":27},"0855":{"zip_code":"5650855","prefecture":"大阪府","prefecture_kana":"オオサカフ","city":"吹田市","city_kana":"スイタシ","town":"佐竹台","town_kana":"サタケダイ","prefecture_code":27},"0831":{"zip_code":"5650831","prefecture":"大阪府","prefecture_kana":"オオサカフ","city":"吹田市","city_kana":"スイタシ","town":"五月が丘東","town_kana":"サツキガオカヒガシ","prefecture_code":27},"0833":{"zip_code":"5650833","prefecture":"大阪府","prefecture_kana":"オオサカフ","city":"吹田市","city_kana":"スイタシ","town":"五月が丘西","town_kana":"サツキガオカニシ","prefecture_code":27},"0832":{"zip_code":"5650832","prefecture":"大阪府","prefecture_kana":"オオサカフ","city":"吹田市","city_kana":"スイタシ","town":"五月が丘南","town_kana":"サツキガオカミナミ","prefecture_code":27},"0834":{"zip_code":"5650834","prefecture":"大阪府","prefecture_kana":"オオサカフ","city":"吹田市","city_kana":"スイタシ","town":"五月が丘北","town_kana":"サツキガオカキタ","prefecture_code":27},"0805":{"zip_code":"5650805","prefecture":"大阪府","prefecture_kana":"オオサカフ","city":"吹田市","city_kana":"スイタシ","town":"清水","town_kana":"シミズ","prefecture_code":27},"0818":{"zip_code":"5650818","prefecture":"大阪府","prefecture_kana":"オオサカフ","city":"吹田市","city_kana":"スイタシ","town":"尺谷","town_kana":"シャクタニ","prefecture_code":27},"0804":{"zip_code":"5650804","prefecture":"大阪府","prefecture_kana":"オオサカフ","city":"吹田市","city_kana":"スイタシ","town":"新芦屋上","town_kana":"シンアシヤカミ","prefecture_code":27},"0803":{"zip_code":"5650803","prefecture":"大阪府","prefecture_kana":"オオサカフ","city":"吹田市","city_kana":"スイタシ","town":"新芦屋下","town_kana":"シンアシヤシモ","prefecture_code":27},"0826":{"zip_code":"5650826","prefecture":"大阪府","prefecture_kana":"オオサカフ","city":"吹田市","city_kana":"スイタシ","town":"千里万博公園","town_kana":"センリバンパクコウエン","prefecture_code":27},"0811":{"zip_code":"5650811","prefecture":"大阪府","prefecture_kana":"オオサカフ","city":"吹田市","city_kana":"スイタシ","town":"千里丘上","town_kana":"センリオカカミ","prefecture_code":27},"0812":{"zip_code":"5650812","prefecture":"大阪府","prefecture_kana":"オオサカフ","city":"吹田市","city_kana":"スイタシ","town":"千里丘中","town_kana":"センリオカナカ","prefecture_code":27},"0813":{"zip_code":"5650813","prefecture":"大阪府","prefecture_kana":"オオサカフ","city":"吹田市","city_kana":"スイタシ","town":"千里丘下","town_kana":"センリオカシモ","prefecture_code":27},"0814":{"zip_code":"5650814","prefecture":"大阪府","prefecture_kana":"オオサカフ","city":"吹田市","city_kana":"スイタシ","town":"千里丘西","town_kana":"センリオカニシ","prefecture_code":27},"0815":{"zip_code":"5650815","prefecture":"大阪府","prefecture_kana":"オオサカフ","city":"吹田市","city_kana":"スイタシ","town":"千里丘北","town_kana":"センリオカキタ","prefecture_code":27},"0844":{"zip_code":"5650844","prefecture":"大阪府","prefecture_kana":"オオサカフ","city":"吹田市","city_kana":"スイタシ","town":"千里山霧が丘","town_kana":"センリヤマキリガオカ","prefecture_code":27},"0848":{"zip_code":"5650848","prefecture":"大阪府","prefecture_kana":"オオサカフ","city":"吹田市","city_kana":"スイタシ","town":"千里山高塚","town_kana":"センリヤマタカツカ","prefecture_code":27},"0852":{"zip_code":"5650852","prefecture":"大阪府","prefecture_kana":"オオサカフ","city":"吹田市","city_kana":"スイタシ","town":"千里山竹園","town_kana":"センリヤマタケゾノ","prefecture_code":27},"0847":{"zip_code":"5650847","prefecture":"大阪府","prefecture_kana":"オオサカフ","city":"吹田市","city_kana":"スイタシ","town":"千里山月が丘","town_kana":"センリヤマツキガオカ","prefecture_code":27},"0846":{"zip_code":"5650846","prefecture":"大阪府","prefecture_kana":"オオサカフ","city":"吹田市","city_kana":"スイタシ","town":"千里山虹が丘","town_kana":"センリヤマニジガオカ","prefecture_code":27},"0845":{"zip_code":"5650845","prefecture":"大阪府","prefecture_kana":"オオサカフ","city":"吹田市","city_kana":"スイタシ","town":"千里山星が丘","town_kana":"センリヤマホシガオカ","prefecture_code":27},"0843":{"zip_code":"5650843","prefecture":"大阪府","prefecture_kana":"オオサカフ","city":"吹田市","city_kana":"スイタシ","town":"千里山松が丘","town_kana":"センリヤママツガオカ","prefecture_code":27},"0842":{"zip_code":"5650842","prefecture":"大阪府","prefecture_kana":"オオサカフ","city":"吹田市","city_kana":"スイタシ","town":"千里山東","town_kana":"センリヤマヒガシ","prefecture_code":27},"0851":{"zip_code":"5650851","prefecture":"大阪府","prefecture_kana":"オオサカフ","city":"吹田市","city_kana":"スイタシ","town":"千里山西","town_kana":"センリヤマニシ","prefecture_code":27},"0861":{"zip_code":"5650861","prefecture":"大阪府","prefecture_kana":"オオサカフ","city":"吹田市","city_kana":"スイタシ","town":"高野台","town_kana":"タカノダイ","prefecture_code":27},"0835":{"zip_code":"5650835","prefecture":"大阪府","prefecture_kana":"オオサカフ","city":"吹田市","city_kana":"スイタシ","town":"竹谷町","town_kana":"タケタニチョウ","prefecture_code":27},"0863":{"zip_code":"5650863","prefecture":"大阪府","prefecture_kana":"オオサカフ","city":"吹田市","city_kana":"スイタシ","town":"竹見台","town_kana":"タケミダイ","prefecture_code":27},"0862":{"zip_code":"5650862","prefecture":"大阪府","prefecture_kana":"オオサカフ","city":"吹田市","city_kana":"スイタシ","town":"津雲台","town_kana":"ツクモダイ","prefecture_code":27},"0816":{"zip_code":"5650816","prefecture":"大阪府","prefecture_kana":"オオサカフ","city":"吹田市","city_kana":"スイタシ","town":"長野東","town_kana":"ナガノヒガシ","prefecture_code":27},"0817":{"zip_code":"5650817","prefecture":"大阪府","prefecture_kana":"オオサカフ","city":"吹田市","city_kana":"スイタシ","town":"長野西","town_kana":"ナガノニシ","prefecture_code":27},"0873":{"zip_code":"5650873","prefecture":"大阪府","prefecture_kana":"オオサカフ","city":"吹田市","city_kana":"スイタシ","town":"藤白台","town_kana":"フジシロダイ","prefecture_code":27},"0874":{"zip_code":"5650874","prefecture":"大阪府","prefecture_kana":"オオサカフ","city":"吹田市","city_kana":"スイタシ","town":"古江台","town_kana":"フルエダイ","prefecture_code":27},"0854":{"zip_code":"5650854","prefecture":"大阪府","prefecture_kana":"オオサカフ","city":"吹田市","city_kana":"スイタシ","town":"桃山台","town_kana":"モモヤマダイ","prefecture_code":27},"0822":{"zip_code":"5650822","prefecture":"大阪府","prefecture_kana":"オオサカフ","city":"吹田市","city_kana":"スイタシ","town":"山田市場","town_kana":"ヤマダイチバ","prefecture_code":27},"0821":{"zip_code":"5650821","prefecture":"大阪府","prefecture_kana":"オオサカフ","city":"吹田市","city_kana":"スイタシ","town":"山田東","town_kana":"ヤマダヒガシ","prefecture_code":27},"0824":{"zip_code":"5650824","prefecture":"大阪府","prefecture_kana":"オオサカフ","city":"吹田市","city_kana":"スイタシ","town":"山田西","town_kana":"ヤマダニシ","prefecture_code":27},"0823":{"zip_code":"5650823","prefecture":"大阪府","prefecture_kana":"オオサカフ","city":"吹田市","city_kana":"スイタシ","town":"山田南","town_kana":"ヤマダミナミ","prefecture_code":27},"0825":{"zip_code":"5650825","prefecture":"大阪府","prefecture_kana":"オオサカフ","city":"吹田市","city_kana":"スイタシ","town":"山田北","town_kana":"ヤマダキタ","prefecture_code":27},"0871":{"zip_code":"5650871","prefecture":"大阪府","prefecture_kana":"オオサカフ","city":"吹田市","city_kana":"スイタシ","town":"山田丘","town_kana":"ヤマダオカ","prefecture_code":27}}