{"8186":{"zip_code":"6638186","prefecture":"兵庫県","prefecture_kana":"ヒョウゴケン","city":"西宮市","city_kana":"ニシノミヤシ","town":"上鳴尾町","town_kana":"アゲナルオチョウ","prefecture_code":28},"8025":{"zip_code":"6638025","prefecture":"兵庫県","prefecture_kana":"ヒョウゴケン","city":"西宮市","city_kana":"ニシノミヤシ","town":"荒木町","town_kana":"アラキチョウ","prefecture_code":28},"8137":{"zip_code":"6638137","prefecture":"兵庫県","prefecture_kana":"ヒョウゴケン","city":"西宮市","city_kana":"ニシノミヤシ","town":"池開町","town_kana":"イケビラキチョウ","prefecture_code":28},"8002":{"zip_code":"6638002","prefecture":"兵庫県","prefecture_kana":"ヒョウゴケン","city":"西宮市","city_kana":"ニシノミヤシ","town":"一里山町","town_kana":"イチリヤマチョウ","prefecture_code":28},"8214":{"zip_code":"6638214","prefecture":"兵庫県","prefecture_kana":"ヒョウゴケン","city":"西宮市","city_kana":"ニシノミヤシ","town":"今津曙町","town_kana":"イマヅアケボノチョウ","prefecture_code":28},"8213":{"zip_code":"6638213","prefecture":"兵庫県","prefecture_kana":"ヒョウゴケン","city":"西宮市","city_kana":"ニシノミヤシ","town":"今津上野町","town_kana":"イマヅウエノチョウ","prefecture_code":28},"8221":{"zip_code":"6638221","prefecture":"兵庫県","prefecture_kana":"ヒョウゴケン","city":"西宮市","city_kana":"ニシノミヤシ","town":"今津大東町","town_kana":"イマヅオオヒガシチョウ","prefecture_code":28},"8222":{"zip_code":"6638222","prefecture":"兵庫県","prefecture_kana":"ヒョウゴケン","city":"西宮市","city_kana":"ニシノミヤシ","town":"今津久寿川町","town_kana":"イマヅクスガワチョウ","prefecture_code":28},"8229":{"zip_code":"6638229","prefecture":"兵庫県","prefecture_kana":"ヒョウゴケン","city":"西宮市","city_kana":"ニシノミヤシ","town":"今津社前町","town_kana":"イマヅシャゼンチョウ","prefecture_code":28},"8223":{"zip_code":"6638223","prefecture":"兵庫県","prefecture_kana":"ヒョウゴケン","city":"西宮市","city_kana":"ニシノミヤシ","town":"今津巽町","town_kana":"イマヅタツミチョウ","prefecture_code":28},"8227":{"zip_code":"6638227","prefecture":"兵庫県","prefecture_kana":"ヒョウゴケン","city":"西宮市","city_kana":"ニシノミヤシ","town":"今津出在家町","town_kana":"イマヅデザイケチョウ","prefecture_code":28},"8225":{"zip_code":"6638225","prefecture":"兵庫県","prefecture_kana":"ヒョウゴケン","city":"西宮市","city_kana":"ニシノミヤシ","town":"今津西浜町","town_kana":"イマヅニシハマチョウ","prefecture_code":28},"8212":{"zip_code":"6638212","prefecture":"兵庫県","prefecture_kana":"ヒョウゴケン","city":"西宮市","city_kana":"ニシノミヤシ","town":"今津野田町","town_kana":"イマヅノダチョウ","prefecture_code":28},"8228":{"zip_code":"6638228","prefecture":"兵庫県","prefecture_kana":"ヒョウゴケン","city":"西宮市","city_kana":"ニシノミヤシ","town":"今津二葉町","town_kana":"イマヅフタバチョウ","prefecture_code":28},"8224":{"zip_code":"6638224","prefecture":"兵庫県","prefecture_kana":"ヒョウゴケン","city":"西宮市","city_kana":"ニシノミヤシ","town":"今津真砂町","town_kana":"イマヅマサゴチョウ","prefecture_code":28},"8215":{"zip_code":"6638215","prefecture":"兵庫県","prefecture_kana":"ヒョウゴケン","city":"西宮市","city_kana":"ニシノミヤシ","town":"今津水波町","town_kana":"イマヅミズナミチョウ","prefecture_code":28},"8226":{"zip_code":"6638226","prefecture":"兵庫県","prefecture_kana":"ヒョウゴケン","city":"西宮市","city_kana":"ニシノミヤシ","town":"今津港町","town_kana":"イマヅミナトチョウ","prefecture_code":28},"8211":{"zip_code":"6638211","prefecture":"兵庫県","prefecture_kana":"ヒョウゴケン","city":"西宮市","city_kana":"ニシノミヤシ","town":"今津山中町","town_kana":"イマヅヤマナカチョウ","prefecture_code":28},"8134":{"zip_code":"6638134","prefecture":"兵庫県","prefecture_kana":"ヒョウゴケン","city":"西宮市","city_kana":"ニシノミヤシ","town":"上田中町","town_kana":"ウエダナカマチ","prefecture_code":28},"8133":{"zip_code":"6638133","prefecture":"兵庫県","prefecture_kana":"ヒョウゴケン","city":"西宮市","city_kana":"ニシノミヤシ","town":"上田東町","town_kana":"ウエダヒガシマチ","prefecture_code":28},"8135":{"zip_code":"6638135","prefecture":"兵庫県","prefecture_kana":"ヒョウゴケン","city":"西宮市","city_kana":"ニシノミヤシ","town":"上田西町","town_kana":"ウエダニシマチ","prefecture_code":28},"8143":{"zip_code":"6638143","prefecture":"兵庫県","prefecture_kana":"ヒョウゴケン","city":"西宮市","city_kana":"ニシノミヤシ","town":"枝川町","town_kana":"エダガワチョウ","prefecture_code":28},"8017":{"zip_code":"6638017","prefecture":"兵庫県","prefecture_kana":"ヒョウゴケン","city":"西宮市","city_kana":"ニシノミヤシ","town":"大島町","town_kana":"オオシマチョウ","prefecture_code":28},"8023":{"zip_code":"6638023","prefecture":"兵庫県","prefecture_kana":"ヒョウゴケン","city":"西宮市","city_kana":"ニシノミヤシ","town":"大森町","town_kana":"オオモリチョウ","prefecture_code":28},"8106":{"zip_code":"6638106","prefecture":"兵庫県","prefecture_kana":"ヒョウゴケン","city":"西宮市","city_kana":"ニシノミヤシ","town":"大屋町","town_kana":"オオヤチョウ","prefecture_code":28},"8182":{"zip_code":"6638182","prefecture":"兵庫県","prefecture_kana":"ヒョウゴケン","city":"西宮市","city_kana":"ニシノミヤシ","town":"学文殿町","town_kana":"ガクブンデンチョウ","prefecture_code":28},"8136":{"zip_code":"6638136","prefecture":"兵庫県","prefecture_kana":"ヒョウゴケン","city":"西宮市","city_kana":"ニシノミヤシ","town":"笠屋町","town_kana":"カサヤチョウ","prefecture_code":28},"8003":{"zip_code":"6638003","prefecture":"兵庫県","prefecture_kana":"ヒョウゴケン","city":"西宮市","city_kana":"ニシノミヤシ","town":"上大市","town_kana":"カミオオイチ","prefecture_code":28},"8114":{"zip_code":"6638114","prefecture":"兵庫県","prefecture_kana":"ヒョウゴケン","city":"西宮市","city_kana":"ニシノミヤシ","town":"上甲子園","town_kana":"カミコウシエン","prefecture_code":28},"8021":{"zip_code":"6638021","prefecture":"兵庫県","prefecture_kana":"ヒョウゴケン","city":"西宮市","city_kana":"ニシノミヤシ","town":"上之町","town_kana":"カミノチョウ","prefecture_code":28},"8107":{"zip_code":"6638107","prefecture":"兵庫県","prefecture_kana":"ヒョウゴケン","city":"西宮市","city_kana":"ニシノミヤシ","town":"瓦林町","town_kana":"カワラバヤシチョウ","prefecture_code":28},"8035":{"zip_code":"6638035","prefecture":"兵庫県","prefecture_kana":"ヒョウゴケン","city":"西宮市","city_kana":"ニシノミヤシ","town":"北口町","town_kana":"キタグチチョウ","prefecture_code":28},"8103":{"zip_code":"6638103","prefecture":"兵庫県","prefecture_kana":"ヒョウゴケン","city":"西宮市","city_kana":"ニシノミヤシ","town":"熊野町","town_kana":"クマノチョウ","prefecture_code":28},"8156":{"zip_code":"6638156","prefecture":"兵庫県","prefecture_kana":"ヒョウゴケン","city":"西宮市","city_kana":"ニシノミヤシ","town":"甲子園網引町","town_kana":"コウシエンアビキチョウ","prefecture_code":28},"8165":{"zip_code":"6638165","prefecture":"兵庫県","prefecture_kana":"ヒョウゴケン","city":"西宮市","city_kana":"ニシノミヤシ","town":"甲子園浦風町","town_kana":"コウシエンウラカゼチョウ","prefecture_code":28},"8151":{"zip_code":"6638151","prefecture":"兵庫県","prefecture_kana":"ヒョウゴケン","city":"西宮市","city_kana":"ニシノミヤシ","town":"甲子園洲鳥町","town_kana":"コウシエンスドリチョウ","prefecture_code":28},"8162":{"zip_code":"6638162","prefecture":"兵庫県","prefecture_kana":"ヒョウゴケン","city":"西宮市","city_kana":"ニシノミヤシ","town":"甲子園砂田町","town_kana":"コウシエンスナダチョウ","prefecture_code":28},"8166":{"zip_code":"6638166","prefecture":"兵庫県","prefecture_kana":"ヒョウゴケン","city":"西宮市","city_kana":"ニシノミヤシ","town":"甲子園高潮町","town_kana":"コウシエンタカシオチョウ","prefecture_code":28},"8167":{"zip_code":"6638167","prefecture":"兵庫県","prefecture_kana":"ヒョウゴケン","city":"西宮市","city_kana":"ニシノミヤシ","town":"甲子園浜田町","town_kana":"コウシエンハマダチョウ","prefecture_code":28},"8161":{"zip_code":"6638161","prefecture":"兵庫県","prefecture_kana":"ヒョウゴケン","city":"西宮市","city_kana":"ニシノミヤシ","town":"甲子園春風町","town_kana":"コウシエンハルカゼチョウ","prefecture_code":28},"8163":{"zip_code":"6638163","prefecture":"兵庫県","prefecture_kana":"ヒョウゴケン","city":"西宮市","city_kana":"ニシノミヤシ","town":"甲子園三保町","town_kana":"コウシエンミホチョウ","prefecture_code":28},"8164":{"zip_code":"6638164","prefecture":"兵庫県","prefecture_kana":"ヒョウゴケン","city":"西宮市","city_kana":"ニシノミヤシ","town":"甲子園六石町","town_kana":"コウシエンロッコクチョウ","prefecture_code":28},"8171":{"zip_code":"6638171","prefecture":"兵庫県","prefecture_kana":"ヒョウゴケン","city":"西宮市","city_kana":"ニシノミヤシ","town":"甲子園一番町","town_kana":"コウシエン1バンチョウ","prefecture_code":28},"8172":{"zip_code":"6638172","prefecture":"兵庫県","prefecture_kana":"ヒョウゴケン","city":"西宮市","city_kana":"ニシノミヤシ","town":"甲子園二番町","town_kana":"コウシエン2バンチョウ","prefecture_code":28},"8173":{"zip_code":"6638173","prefecture":"兵庫県","prefecture_kana":"ヒョウゴケン","city":"西宮市","city_kana":"ニシノミヤシ","town":"甲子園三番町","town_kana":"コウシエン3バンチョウ","prefecture_code":28},"8174":{"zip_code":"6638174","prefecture":"兵庫県","prefecture_kana":"ヒョウゴケン","city":"西宮市","city_kana":"ニシノミヤシ","town":"甲子園四番町","town_kana":"コウシエン4バンチョウ","prefecture_code":28},"8175":{"zip_code":"6638175","prefecture":"兵庫県","prefecture_kana":"ヒョウゴケン","city":"西宮市","city_kana":"ニシノミヤシ","town":"甲子園五番町","town_kana":"コウシエン5バンチョウ","prefecture_code":28},"8176":{"zip_code":"6638176","prefecture":"兵庫県","prefecture_kana":"ヒョウゴケン","city":"西宮市","city_kana":"ニシノミヤシ","town":"甲子園六番町","town_kana":"コウシエン6バンチョウ","prefecture_code":28},"8177":{"zip_code":"6638177","prefecture":"兵庫県","prefecture_kana":"ヒョウゴケン","city":"西宮市","city_kana":"ニシノミヤシ","town":"甲子園七番町","town_kana":"コウシエン7バンチョウ","prefecture_code":28},"8178":{"zip_code":"6638178","prefecture":"兵庫県","prefecture_kana":"ヒョウゴケン","city":"西宮市","city_kana":"ニシノミヤシ","town":"甲子園八番町","town_kana":"コウシエン8バンチョウ","prefecture_code":28},"8179":{"zip_code":"6638179","prefecture":"兵庫県","prefecture_kana":"ヒョウゴケン","city":"西宮市","city_kana":"ニシノミヤシ","town":"甲子園九番町","town_kana":"コウシエン9バンチョウ","prefecture_code":28},"8113":{"zip_code":"6638113","prefecture":"兵庫県","prefecture_kana":"ヒョウゴケン","city":"西宮市","city_kana":"ニシノミヤシ","town":"甲子園口","town_kana":"コウシエングチ","prefecture_code":28},"8112":{"zip_code":"6638112","prefecture":"兵庫県","prefecture_kana":"ヒョウゴケン","city":"西宮市","city_kana":"ニシノミヤシ","town":"甲子園口北町","town_kana":"コウシエングチキタマチ","prefecture_code":28},"8152":{"zip_code":"6638152","prefecture":"兵庫県","prefecture_kana":"ヒョウゴケン","city":"西宮市","city_kana":"ニシノミヤシ","town":"甲子園町","town_kana":"コウシエンチョウ","prefecture_code":28},"8155":{"zip_code":"6638155","prefecture":"兵庫県","prefecture_kana":"ヒョウゴケン","city":"西宮市","city_kana":"ニシノミヤシ","town":"甲子園浜","town_kana":"コウシエンハマ","prefecture_code":28},"8122":{"zip_code":"6638122","prefecture":"兵庫県","prefecture_kana":"ヒョウゴケン","city":"西宮市","city_kana":"ニシノミヤシ","town":"小曽根町","town_kana":"コソネチョウ","prefecture_code":28},"8123":{"zip_code":"6638123","prefecture":"兵庫県","prefecture_kana":"ヒョウゴケン","city":"西宮市","city_kana":"ニシノミヤシ","town":"小松東町","town_kana":"コマツヒガシマチ","prefecture_code":28},"8125":{"zip_code":"6638125","prefecture":"兵庫県","prefecture_kana":"ヒョウゴケン","city":"西宮市","city_kana":"ニシノミヤシ","town":"小松西町","town_kana":"コマツニシマチ","prefecture_code":28},"8124":{"zip_code":"6638124","prefecture":"兵庫県","prefecture_kana":"ヒョウゴケン","city":"西宮市","city_kana":"ニシノミヤシ","town":"小松南町","town_kana":"コマツミナミマチ","prefecture_code":28},"8126":{"zip_code":"6638126","prefecture":"兵庫県","prefecture_kana":"ヒョウゴケン","city":"西宮市","city_kana":"ニシノミヤシ","town":"小松北町","town_kana":"コマツキタマチ","prefecture_code":28},"8127":{"zip_code":"6638127","prefecture":"兵庫県","prefecture_kana":"ヒョウゴケン","city":"西宮市","city_kana":"ニシノミヤシ","town":"小松町","town_kana":"コマツチョウ","prefecture_code":28},"8183":{"zip_code":"6638183","prefecture":"兵庫県","prefecture_kana":"ヒョウゴケン","city":"西宮市","city_kana":"ニシノミヤシ","town":"里中町","town_kana":"サトナカチョウ","prefecture_code":28},"8004":{"zip_code":"6638004","prefecture":"兵庫県","prefecture_kana":"ヒョウゴケン","city":"西宮市","city_kana":"ニシノミヤシ","town":"下大市東町","town_kana":"シモオオイチヒガシマチ","prefecture_code":28},"8005":{"zip_code":"6638005","prefecture":"兵庫県","prefecture_kana":"ヒョウゴケン","city":"西宮市","city_kana":"ニシノミヤシ","town":"下大市西町","town_kana":"シモオオイチニシマチ","prefecture_code":28},"8033":{"zip_code":"6638033","prefecture":"兵庫県","prefecture_kana":"ヒョウゴケン","city":"西宮市","city_kana":"ニシノミヤシ","town":"高木東町","town_kana":"タカギヒガシマチ","prefecture_code":28},"8032":{"zip_code":"6638032","prefecture":"兵庫県","prefecture_kana":"ヒョウゴケン","city":"西宮市","city_kana":"ニシノミヤシ","town":"高木西町","town_kana":"タカギニシマチ","prefecture_code":28},"8141":{"zip_code":"6638141","prefecture":"兵庫県","prefecture_kana":"ヒョウゴケン","city":"西宮市","city_kana":"ニシノミヤシ","town":"高須町","town_kana":"タカスチョウ","prefecture_code":28},"8202":{"zip_code":"6638202","prefecture":"兵庫県","prefecture_kana":"ヒョウゴケン","city":"西宮市","city_kana":"ニシノミヤシ","town":"高畑町","town_kana":"タカハタチョウ","prefecture_code":28},"8204":{"zip_code":"6638204","prefecture":"兵庫県","prefecture_kana":"ヒョウゴケン","city":"西宮市","city_kana":"ニシノミヤシ","town":"高松町","town_kana":"タカマツチョウ","prefecture_code":28},"8201":{"zip_code":"6638201","prefecture":"兵庫県","prefecture_kana":"ヒョウゴケン","city":"西宮市","city_kana":"ニシノミヤシ","town":"田代町","town_kana":"タシロチョウ","prefecture_code":28},"8001":{"zip_code":"6638001","prefecture":"兵庫県","prefecture_kana":"ヒョウゴケン","city":"西宮市","city_kana":"ニシノミヤシ","town":"田近野町","town_kana":"タジカノチョウ","prefecture_code":28},"8006":{"zip_code":"6638006","prefecture":"兵庫県","prefecture_kana":"ヒョウゴケン","city":"西宮市","city_kana":"ニシノミヤシ","town":"段上町","town_kana":"ダンジョウチョウ","prefecture_code":28},"8012":{"zip_code":"6638012","prefecture":"兵庫県","prefecture_kana":"ヒョウゴケン","city":"西宮市","city_kana":"ニシノミヤシ","town":"堤町","town_kana":"ツツミチョウ","prefecture_code":28},"8244":{"zip_code":"6638244","prefecture":"兵庫県","prefecture_kana":"ヒョウゴケン","city":"西宮市","city_kana":"ニシノミヤシ","town":"津門綾羽町","town_kana":"ツトアヤハチョウ","prefecture_code":28},"8242":{"zip_code":"6638242","prefecture":"兵庫県","prefecture_kana":"ヒョウゴケン","city":"西宮市","city_kana":"ニシノミヤシ","town":"津門飯田町","town_kana":"ツトイイデンチョウ","prefecture_code":28},"8247":{"zip_code":"6638247","prefecture":"兵庫県","prefecture_kana":"ヒョウゴケン","city":"西宮市","city_kana":"ニシノミヤシ","town":"津門稲荷町","town_kana":"ツトイナリチョウ","prefecture_code":28},"8243":{"zip_code":"6638243","prefecture":"兵庫県","prefecture_kana":"ヒョウゴケン","city":"西宮市","city_kana":"ニシノミヤシ","town":"津門大箇町","town_kana":"ツトオオゴチョウ","prefecture_code":28},"8241":{"zip_code":"6638241","prefecture":"兵庫県","prefecture_kana":"ヒョウゴケン","city":"西宮市","city_kana":"ニシノミヤシ","town":"津門大塚町","town_kana":"ツトオオツカチョウ","prefecture_code":28},"8245":{"zip_code":"6638245","prefecture":"兵庫県","prefecture_kana":"ヒョウゴケン","city":"西宮市","city_kana":"ニシノミヤシ","town":"津門呉羽町","town_kana":"ツトクレハチョウ","prefecture_code":28},"8234":{"zip_code":"6638234","prefecture":"兵庫県","prefecture_kana":"ヒョウゴケン","city":"西宮市","city_kana":"ニシノミヤシ","town":"津門住江町","town_kana":"ツトスミエチョウ","prefecture_code":28},"8231":{"zip_code":"6638231","prefecture":"兵庫県","prefecture_kana":"ヒョウゴケン","city":"西宮市","city_kana":"ニシノミヤシ","town":"津門西口町","town_kana":"ツトニシグチチョウ","prefecture_code":28},"8246":{"zip_code":"6638246","prefecture":"兵庫県","prefecture_kana":"ヒョウゴケン","city":"西宮市","city_kana":"ニシノミヤシ","town":"津門仁辺町","town_kana":"ツトニベチョウ","prefecture_code":28},"8232":{"zip_code":"6638232","prefecture":"兵庫県","prefecture_kana":"ヒョウゴケン","city":"西宮市","city_kana":"ニシノミヤシ","town":"津門宝津町","town_kana":"ツトホウズチョウ","prefecture_code":28},"8233":{"zip_code":"6638233","prefecture":"兵庫県","prefecture_kana":"ヒョウゴケン","city":"西宮市","city_kana":"ニシノミヤシ","town":"津門川町","town_kana":"ツトガワチョウ","prefecture_code":28},"8104":{"zip_code":"6638104","prefecture":"兵庫県","prefecture_kana":"ヒョウゴケン","city":"西宮市","city_kana":"ニシノミヤシ","town":"天道町","town_kana":"テンドウチョウ","prefecture_code":28},"8121":{"zip_code":"6638121","prefecture":"兵庫県","prefecture_kana":"ヒョウゴケン","city":"西宮市","city_kana":"ニシノミヤシ","town":"戸崎町","town_kana":"トザキチョウ","prefecture_code":28},"8105":{"zip_code":"6638105","prefecture":"兵庫県","prefecture_kana":"ヒョウゴケン","city":"西宮市","city_kana":"ニシノミヤシ","town":"中島町","town_kana":"ナカジマチョウ","prefecture_code":28},"8034":{"zip_code":"6638034","prefecture":"兵庫県","prefecture_kana":"ヒョウゴケン","city":"西宮市","city_kana":"ニシノミヤシ","town":"長田町","town_kana":"ナガタチョウ","prefecture_code":28},"8184":{"zip_code":"6638184","prefecture":"兵庫県","prefecture_kana":"ヒョウゴケン","city":"西宮市","city_kana":"ニシノミヤシ","town":"鳴尾町","town_kana":"ナルオチョウ","prefecture_code":28},"8142":{"zip_code":"6638142","prefecture":"兵庫県","prefecture_kana":"ヒョウゴケン","city":"西宮市","city_kana":"ニシノミヤシ","town":"鳴尾浜","town_kana":"ナルオハマ","prefecture_code":28},"8015":{"zip_code":"6638015","prefecture":"兵庫県","prefecture_kana":"ヒョウゴケン","city":"西宮市","city_kana":"ニシノミヤシ","town":"野間町","town_kana":"ノマチョウ","prefecture_code":28},"8187":{"zip_code":"6638187","prefecture":"兵庫県","prefecture_kana":"ヒョウゴケン","city":"西宮市","city_kana":"ニシノミヤシ","town":"花園町","town_kana":"ハナゾノチョウ","prefecture_code":28},"8154":{"zip_code":"6638154","prefecture":"兵庫県","prefecture_kana":"ヒョウゴケン","city":"西宮市","city_kana":"ニシノミヤシ","town":"浜甲子園","town_kana":"ハマコウシエン","prefecture_code":28},"8014":{"zip_code":"6638014","prefecture":"兵庫県","prefecture_kana":"ヒョウゴケン","city":"西宮市","city_kana":"ニシノミヤシ","town":"林田町","town_kana":"ハヤシダチョウ","prefecture_code":28},"8132":{"zip_code":"6638132","prefecture":"兵庫県","prefecture_kana":"ヒョウゴケン","city":"西宮市","city_kana":"ニシノミヤシ","town":"東鳴尾町","town_kana":"ヒガシナルオチョウ","prefecture_code":28},"8011":{"zip_code":"6638011","prefecture":"兵庫県","prefecture_kana":"ヒョウゴケン","city":"西宮市","city_kana":"ニシノミヤシ","town":"樋ノ口町","town_kana":"ヒノクチチョウ","prefecture_code":28},"8022":{"zip_code":"6638022","prefecture":"兵庫県","prefecture_kana":"ヒョウゴケン","city":"西宮市","city_kana":"ニシノミヤシ","town":"日野町","town_kana":"ヒノチョウ","prefecture_code":28},"8203":{"zip_code":"6638203","prefecture":"兵庫県","prefecture_kana":"ヒョウゴケン","city":"西宮市","city_kana":"ニシノミヤシ","town":"深津町","town_kana":"フカズチョウ","prefecture_code":28},"8031":{"zip_code":"6638031","prefecture":"兵庫県","prefecture_kana":"ヒョウゴケン","city":"西宮市","city_kana":"ニシノミヤシ","town":"伏原町","town_kana":"フシハラチョウ","prefecture_code":28},"8111":{"zip_code":"6638111","prefecture":"兵庫県","prefecture_kana":"ヒョウゴケン","city":"西宮市","city_kana":"ニシノミヤシ","town":"二見町","town_kana":"フタミチョウ","prefecture_code":28},"8185":{"zip_code":"6638185","prefecture":"兵庫県","prefecture_kana":"ヒョウゴケン","city":"西宮市","city_kana":"ニシノミヤシ","town":"古川町","town_kana":"フルカワチョウ","prefecture_code":28},"8102":{"zip_code":"6638102","prefecture":"兵庫県","prefecture_kana":"ヒョウゴケン","city":"西宮市","city_kana":"ニシノミヤシ","town":"松並町","town_kana":"マツナミチョウ","prefecture_code":28},"8101":{"zip_code":"6638101","prefecture":"兵庫県","prefecture_kana":"ヒョウゴケン","city":"西宮市","city_kana":"ニシノミヤシ","town":"松山町","town_kana":"マツヤマチョウ","prefecture_code":28},"8153":{"zip_code":"6638153","prefecture":"兵庫県","prefecture_kana":"ヒョウゴケン","city":"西宮市","city_kana":"ニシノミヤシ","town":"南甲子園","town_kana":"ミナミコウシエン","prefecture_code":28},"8131":{"zip_code":"6638131","prefecture":"兵庫県","prefecture_kana":"ヒョウゴケン","city":"西宮市","city_kana":"ニシノミヤシ","town":"武庫川町","town_kana":"ムコガワチョウ","prefecture_code":28},"8013":{"zip_code":"6638013","prefecture":"兵庫県","prefecture_kana":"ヒョウゴケン","city":"西宮市","city_kana":"ニシノミヤシ","town":"門前町","town_kana":"モンゼンチョウ","prefecture_code":28},"8024":{"zip_code":"6638024","prefecture":"兵庫県","prefecture_kana":"ヒョウゴケン","city":"西宮市","city_kana":"ニシノミヤシ","town":"薬師町","town_kana":"ヤクシチョウ","prefecture_code":28},"8181":{"zip_code":"6638181","prefecture":"兵庫県","prefecture_kana":"ヒョウゴケン","city":"西宮市","city_kana":"ニシノミヤシ","town":"若草町","town_kana":"ワカクサチョウ","prefecture_code":28},"8016":{"zip_code":"6638016","prefecture":"兵庫県","prefecture_kana":"ヒョウゴケン","city":"西宮市","city_kana":"ニシノミヤシ","town":"若山町","town_kana":"ワカヤマチョウ","prefecture_code":28}}