{"0044":[{"zip_code":"8260044","prefecture":"福岡県","prefecture_kana":"フクオカケン","city":"田川市","city_kana":"タガワシ","town":"位登","town_kana":"イトウ","prefecture_code":40},{"zip_code":"8260044","prefecture":"福岡県","prefecture_kana":"フクオカケン","city":"田川市","city_kana":"タガワシ","town":"位登清美町","town_kana":"イトウキヨミチョウ","prefecture_code":40}],"0045":{"zip_code":"8260045","prefecture":"福岡県","prefecture_kana":"フクオカケン","city":"田川市","city_kana":"タガワシ","town":"猪国","town_kana":"イノクニ","prefecture_code":40},"0026":{"zip_code":"8260026","prefecture":"福岡県","prefecture_kana":"フクオカケン","city":"田川市","city_kana":"タガワシ","town":"春日町","town_kana":"カスガマチ","prefecture_code":40},"0023":{"zip_code":"8260023","prefecture":"福岡県","prefecture_kana":"フクオカケン","city":"田川市","city_kana":"タガワシ","town":"上本町","town_kana":"カミホンマチ","prefecture_code":40},"0042":[{"zip_code":"8260042","prefecture":"福岡県","prefecture_kana":"フクオカケン","city":"田川市","city_kana":"タガワシ","town":"川宮大藪","town_kana":"カワミヤオオヤブ","prefecture_code":40},{"zip_code":"8260042","prefecture":"福岡県","prefecture_kana":"フクオカケン","city":"田川市","city_kana":"タガワシ","town":"川宮新生町","town_kana":"カワミヤシンセイチョウ","prefecture_code":40},{"zip_code":"8260042","prefecture":"福岡県","prefecture_kana":"フクオカケン","city":"田川市","city_kana":"タガワシ","town":"川宮高住町","town_kana":"カワミヤタカスミチョウ","prefecture_code":40},{"zip_code":"8260042","prefecture":"福岡県","prefecture_kana":"フクオカケン","city":"田川市","city_kana":"タガワシ","town":"川宮平岡","town_kana":"カワミヤヒラオカ","prefecture_code":40}],"0021":{"zip_code":"8260021","prefecture":"福岡県","prefecture_kana":"フクオカケン","city":"田川市","city_kana":"タガワシ","town":"桜町","town_kana":"サクラマチ","prefecture_code":40},"0025":{"zip_code":"8260025","prefecture":"福岡県","prefecture_kana":"フクオカケン","city":"田川市","city_kana":"タガワシ","town":"大黒町","town_kana":"ダイコクマチ","prefecture_code":40},"0031":{"zip_code":"8260031","prefecture":"福岡県","prefecture_kana":"フクオカケン","city":"田川市","city_kana":"タガワシ","town":"千代町","town_kana":"チヨマチ","prefecture_code":40},"0043":[{"zip_code":"8260043","prefecture":"福岡県","prefecture_kana":"フクオカケン","city":"田川市","city_kana":"タガワシ","town":"奈良青葉町","town_kana":"ナラアオバチョウ","prefecture_code":40},{"zip_code":"8260043","prefecture":"福岡県","prefecture_kana":"フクオカケン","city":"田川市","city_kana":"タガワシ","town":"奈良大浦","town_kana":"ナラオオウラ","prefecture_code":40},{"zip_code":"8260043","prefecture":"福岡県","prefecture_kana":"フクオカケン","city":"田川市","city_kana":"タガワシ","town":"奈良会社町","town_kana":"ナラカイシャマチ","prefecture_code":40},{"zip_code":"8260043","prefecture":"福岡県","prefecture_kana":"フクオカケン","city":"田川市","city_kana":"タガワシ","town":"奈良霞ケ丘","town_kana":"ナラカスミガオカ","prefecture_code":40},{"zip_code":"8260043","prefecture":"福岡県","prefecture_kana":"フクオカケン","city":"田川市","city_kana":"タガワシ","town":"奈良後藤寺西団地","town_kana":"ナラゴトウジニシダンチ","prefecture_code":40},{"zip_code":"8260043","prefecture":"福岡県","prefecture_kana":"フクオカケン","city":"田川市","city_kana":"タガワシ","town":"奈良後藤寺東団地","town_kana":"ナラゴトウジヒガシダンチ","prefecture_code":40},{"zip_code":"8260043","prefecture":"福岡県","prefecture_kana":"フクオカケン","city":"田川市","city_kana":"タガワシ","town":"奈良希望ケ丘","town_kana":"ナラノゾミガオカ","prefecture_code":40},{"zip_code":"8260043","prefecture":"福岡県","prefecture_kana":"フクオカケン","city":"田川市","city_kana":"タガワシ","town":"奈良松の木","town_kana":"ナラマツノキ","prefecture_code":40},{"zip_code":"8260043","prefecture":"福岡県","prefecture_kana":"フクオカケン","city":"田川市","city_kana":"タガワシ","town":"奈良三井後藤寺","town_kana":"ナラミツイゴトウジ","prefecture_code":40},{"zip_code":"8260043","prefecture":"福岡県","prefecture_kana":"フクオカケン","city":"田川市","city_kana":"タガワシ","town":"奈良緑町","town_kana":"ナラミドリマチ","prefecture_code":40},{"zip_code":"8260043","prefecture":"福岡県","prefecture_kana":"フクオカケン","city":"田川市","city_kana":"タガワシ","town":"奈良月見ケ丘","town_kana":"ナラツキミガオカ","prefecture_code":40}],"0024":{"zip_code":"8260024","prefecture":"福岡県","prefecture_kana":"フクオカケン","city":"田川市","city_kana":"タガワシ","town":"西本町","town_kana":"ニシホンマチ","prefecture_code":40},"0032":{"zip_code":"8260032","prefecture":"福岡県","prefecture_kana":"フクオカケン","city":"田川市","city_kana":"タガワシ","town":"平松町","town_kana":"ヒラマツマチ","prefecture_code":40},"0022":{"zip_code":"8260022","prefecture":"福岡県","prefecture_kana":"フクオカケン","city":"田川市","city_kana":"タガワシ","town":"本町","town_kana":"ホンマチ","prefecture_code":40},"0033":{"zip_code":"8260033","prefecture":"福岡県","prefecture_kana":"フクオカケン","city":"田川市","city_kana":"タガワシ","town":"丸山町","town_kana":"マルヤママチ","prefecture_code":40},"0027":{"zip_code":"8260027","prefecture":"福岡県","prefecture_kana":"フクオカケン","city":"田川市","city_kana":"タガワシ","town":"宮尾町","town_kana":"ミヤオマチ","prefecture_code":40},"0041":[{"zip_code":"8260041","prefecture":"福岡県","prefecture_kana":"フクオカケン","city":"田川市","city_kana":"タガワシ","town":"弓削田角銅原","town_kana":"ユゲタカクドウバル","prefecture_code":40},{"zip_code":"8260041","prefecture":"福岡県","prefecture_kana":"フクオカケン","city":"田川市","city_kana":"タガワシ","town":"弓削田野上","town_kana":"ユゲタノガミ","prefecture_code":40},{"zip_code":"8260041","prefecture":"福岡県","prefecture_kana":"フクオカケン","city":"田川市","city_kana":"タガワシ","town":"弓削田船尾","town_kana":"ユゲタフナオ","prefecture_code":40},{"zip_code":"8260041","prefecture":"福岡県","prefecture_kana":"フクオカケン","city":"田川市","city_kana":"タガワシ","town":"弓削田見立","town_kana":"ユゲタミタテ","prefecture_code":40},{"zip_code":"8260041","prefecture":"福岡県","prefecture_kana":"フクオカケン","city":"田川市","city_kana":"タガワシ","town":"弓削田文字山","town_kana":"ユゲタモジヤマ","prefecture_code":40}],"0002":[{"zip_code":"8260002","prefecture":"福岡県","prefecture_kana":"フクオカケン","city":"田川郡川崎町","city_kana":"タガワグンカワサキマチ","town":"池尻上原","town_kana":"イケジリカンバル","prefecture_code":40},{"zip_code":"8260002","prefecture":"福岡県","prefecture_kana":"フクオカケン","city":"田川郡川崎町","city_kana":"タガワグンカワサキマチ","town":"池尻小倉畔","town_kana":"イケジリコクラノテ","prefecture_code":40}]}