{"8037":{"zip_code":"9518037","prefecture":"新潟県","prefecture_kana":"ニイガタケン","city":"新潟市中央区","city_kana":"ニイガタシチュウオウク","town":"相生町","town_kana":"アイオイチョウ","prefecture_code":15},"8025":{"zip_code":"9518025","prefecture":"新潟県","prefecture_kana":"ニイガタケン","city":"新潟市中央区","city_kana":"ニイガタシチュウオウク","town":"赤坂町","town_kana":"アカサカチョウ","prefecture_code":15},"8021":{"zip_code":"9518021","prefecture":"新潟県","prefecture_kana":"ニイガタケン","city":"新潟市中央区","city_kana":"ニイガタシチュウオウク","town":"曙町","town_kana":"アケボノチョウ","prefecture_code":15},"8122":{"zip_code":"9518122","prefecture":"新潟県","prefecture_kana":"ニイガタケン","city":"新潟市中央区","city_kana":"ニイガタシチュウオウク","town":"旭町通","town_kana":"アサヒマチドオリ","prefecture_code":15},"8146":{"zip_code":"9518146","prefecture":"新潟県","prefecture_kana":"ニイガタケン","city":"新潟市中央区","city_kana":"ニイガタシチュウオウク","town":"有明大橋町","town_kana":"アリアケオオハシチョウ","prefecture_code":15},"8145":{"zip_code":"9518145","prefecture":"新潟県","prefecture_kana":"ニイガタケン","city":"新潟市中央区","city_kana":"ニイガタシチュウオウク","town":"有明台","town_kana":"アリアケダイ","prefecture_code":15},"8124":{"zip_code":"9518124","prefecture":"新潟県","prefecture_kana":"ニイガタケン","city":"新潟市中央区","city_kana":"ニイガタシチュウオウク","town":"医学町通","town_kana":"イガクチョウドオリ","prefecture_code":15},"8055":{"zip_code":"9518055","prefecture":"新潟県","prefecture_kana":"ニイガタケン","city":"新潟市中央区","city_kana":"ニイガタシチュウオウク","town":"礎町通","town_kana":"イシズエチョウドオリ","prefecture_code":15},"8054":{"zip_code":"9518054","prefecture":"新潟県","prefecture_kana":"ニイガタケン","city":"新潟市中央区","city_kana":"ニイガタシチュウオウク","town":"礎町通上一ノ町","town_kana":"イシズエチョウドオリカミイチノチョウ","prefecture_code":15},"8132":{"zip_code":"9518132","prefecture":"新潟県","prefecture_kana":"ニイガタケン","city":"新潟市中央区","city_kana":"ニイガタシチュウオウク","town":"一番堀通町","town_kana":"イチバンボリドオリチョウ","prefecture_code":15},"8018":{"zip_code":"9518018","prefecture":"新潟県","prefecture_kana":"ニイガタケン","city":"新潟市中央区","city_kana":"ニイガタシチュウオウク","town":"稲荷町","town_kana":"イナリマチ","prefecture_code":15},"8011":{"zip_code":"9518011","prefecture":"新潟県","prefecture_kana":"ニイガタケン","city":"新潟市中央区","city_kana":"ニイガタシチュウオウク","town":"入船町","town_kana":"イリフネチョウ","prefecture_code":15},"8074":{"zip_code":"9518074","prefecture":"新潟県","prefecture_kana":"ニイガタケン","city":"新潟市中央区","city_kana":"ニイガタシチュウオウク","town":"祝町","town_kana":"イワイマチ","prefecture_code":15},"8072":{"zip_code":"9518072","prefecture":"新潟県","prefecture_kana":"ニイガタケン","city":"新潟市中央区","city_kana":"ニイガタシチュウオウク","town":"浮洲町","town_kana":"ウキスチョウ","prefecture_code":15},"8001":{"zip_code":"9518001","prefecture":"新潟県","prefecture_kana":"ニイガタケン","city":"新潟市中央区","city_kana":"ニイガタシチュウオウク","town":"海辺町","town_kana":"ウミベチョウ","prefecture_code":15},"8114":{"zip_code":"9518114","prefecture":"新潟県","prefecture_kana":"ニイガタケン","city":"新潟市中央区","city_kana":"ニイガタシチュウオウク","town":"営所通","town_kana":"エイショドオリ","prefecture_code":15},"8077":{"zip_code":"9518077","prefecture":"新潟県","prefecture_kana":"ニイガタケン","city":"新潟市中央区","city_kana":"ニイガタシチュウオウク","town":"烏帽子町","town_kana":"エボシチョウ","prefecture_code":15},"8076":{"zip_code":"9518076","prefecture":"新潟県","prefecture_kana":"ニイガタケン","city":"新潟市中央区","city_kana":"ニイガタシチュウオウク","town":"翁町","town_kana":"オキナマチ","prefecture_code":15},"8125":{"zip_code":"9518125","prefecture":"新潟県","prefecture_kana":"ニイガタケン","city":"新潟市中央区","city_kana":"ニイガタシチュウオウク","town":"学校裏町","town_kana":"ガッコウウラマチ","prefecture_code":15},"8126":{"zip_code":"9518126","prefecture":"新潟県","prefecture_kana":"ニイガタケン","city":"新潟市中央区","city_kana":"ニイガタシチュウオウク","town":"学校町通","town_kana":"ガッコウチョウドオリ","prefecture_code":15},"8068":{"zip_code":"9518068","prefecture":"新潟県","prefecture_kana":"ニイガタケン","city":"新潟市中央区","city_kana":"ニイガタシチュウオウク","town":"上大川前通","town_kana":"カミオオカワマエドオリ","prefecture_code":15},"8133":{"zip_code":"9518133","prefecture":"新潟県","prefecture_kana":"ニイガタケン","city":"新潟市中央区","city_kana":"ニイガタシチュウオウク","town":"川岸町","town_kana":"カワギシチョウ","prefecture_code":15},"8053":{"zip_code":"9518053","prefecture":"新潟県","prefecture_kana":"ニイガタケン","city":"新潟市中央区","city_kana":"ニイガタシチュウオウク","town":"川端町","town_kana":"カワバタチョウ","prefecture_code":15},"8105":{"zip_code":"9518105","prefecture":"新潟県","prefecture_kana":"ニイガタケン","city":"新潟市中央区","city_kana":"ニイガタシチュウオウク","town":"北大畑町","town_kana":"キタオオハタチョウ","prefecture_code":15},"8048":{"zip_code":"9518048","prefecture":"新潟県","prefecture_kana":"ニイガタケン","city":"新潟市中央区","city_kana":"ニイガタシチュウオウク","town":"北多門町","town_kana":"キタタモンチョウ","prefecture_code":15},"8111":{"zip_code":"9518111","prefecture":"新潟県","prefecture_kana":"ニイガタケン","city":"新潟市中央区","city_kana":"ニイガタシチュウオウク","town":"北浜通","town_kana":"キタハマドオリ","prefecture_code":15},"8031":{"zip_code":"9518031","prefecture":"新潟県","prefecture_kana":"ニイガタケン","city":"新潟市中央区","city_kana":"ニイガタシチュウオウク","town":"北毘沙門町","town_kana":"キタビシャモンチョウ","prefecture_code":15},"8081":{"zip_code":"9518081","prefecture":"新潟県","prefecture_kana":"ニイガタケン","city":"新潟市中央区","city_kana":"ニイガタシチュウオウク","town":"寄附町","town_kana":"キフチョウ","prefecture_code":15},"8008":{"zip_code":"9518008","prefecture":"新潟県","prefecture_kana":"ニイガタケン","city":"新潟市中央区","city_kana":"ニイガタシチュウオウク","town":"窪田町","town_kana":"クボタマチ","prefecture_code":15},"8073":{"zip_code":"9518073","prefecture":"新潟県","prefecture_kana":"ニイガタケン","city":"新潟市中央区","city_kana":"ニイガタシチュウオウク","town":"寿町","town_kana":"コトブキチョウ","prefecture_code":15},"8071":{"zip_code":"9518071","prefecture":"新潟県","prefecture_kana":"ニイガタケン","city":"新潟市中央区","city_kana":"ニイガタシチュウオウク","town":"栄町","town_kana":"サカエマチ","prefecture_code":15},"8034":{"zip_code":"9518034","prefecture":"新潟県","prefecture_kana":"ニイガタケン","city":"新潟市中央区","city_kana":"ニイガタシチュウオウク","town":"魁町","town_kana":"サキガケチョウ","prefecture_code":15},"8156":{"zip_code":"9518156","prefecture":"新潟県","prefecture_kana":"ニイガタケン","city":"新潟市中央区","city_kana":"ニイガタシチュウオウク","town":"汐見台","town_kana":"シオミダイ","prefecture_code":15},"8152":{"zip_code":"9518152","prefecture":"新潟県","prefecture_kana":"ニイガタケン","city":"新潟市中央区","city_kana":"ニイガタシチュウオウク","town":"信濃町","town_kana":"シナノマチ","prefecture_code":15},"8123":{"zip_code":"9518123","prefecture":"新潟県","prefecture_kana":"ニイガタケン","city":"新潟市中央区","city_kana":"ニイガタシチュウオウク","town":"下旭町","town_kana":"シモアサヒマチ","prefecture_code":15},"8052":{"zip_code":"9518052","prefecture":"新潟県","prefecture_kana":"ニイガタケン","city":"新潟市中央区","city_kana":"ニイガタシチュウオウク","town":"下大川前通","town_kana":"シモオオカワマエドオリ","prefecture_code":15},"8051":{"zip_code":"9518051","prefecture":"新潟県","prefecture_kana":"ニイガタケン","city":"新潟市中央区","city_kana":"ニイガタシチュウオウク","town":"新島町通","town_kana":"シンシマチョウドオリ","prefecture_code":15},"8121":{"zip_code":"9518121","prefecture":"新潟県","prefecture_kana":"ニイガタケン","city":"新潟市中央区","city_kana":"ニイガタシチュウオウク","town":"水道町","town_kana":"スイドウチョウ","prefecture_code":15},"8088":{"zip_code":"9518088","prefecture":"新潟県","prefecture_kana":"ニイガタケン","city":"新潟市中央区","city_kana":"ニイガタシチュウオウク","town":"菅根町","town_kana":"スガネチョウ","prefecture_code":15},"8042":{"zip_code":"9518042","prefecture":"新潟県","prefecture_kana":"ニイガタケン","city":"新潟市中央区","city_kana":"ニイガタシチュウオウク","town":"住吉町","town_kana":"スミヨシチョウ","prefecture_code":15},"8141":{"zip_code":"9518141","prefecture":"新潟県","prefecture_kana":"ニイガタケン","city":"新潟市中央区","city_kana":"ニイガタシチュウオウク","town":"関新","town_kana":"セキシン","prefecture_code":15},"8144":{"zip_code":"9518144","prefecture":"新潟県","prefecture_kana":"ニイガタケン","city":"新潟市中央区","city_kana":"ニイガタシチュウオウク","town":"関南町","town_kana":"セキナミチョウ","prefecture_code":15},"8134":[{"zip_code":"9518134","prefecture":"新潟県","prefecture_kana":"ニイガタケン","city":"新潟市中央区","city_kana":"ニイガタシチュウオウク","town":"関屋","town_kana":"セキヤ","prefecture_code":15},{"zip_code":"9518134","prefecture":"新潟県","prefecture_kana":"ニイガタケン","city":"新潟市西区","city_kana":"ニイガタシニシク","town":"関屋","town_kana":"セキヤ","prefecture_code":15}],"8142":{"zip_code":"9518142","prefecture":"新潟県","prefecture_kana":"ニイガタケン","city":"新潟市中央区","city_kana":"ニイガタシチュウオウク","town":"関屋大川前","town_kana":"セキヤオオカワマエ","prefecture_code":15},"8163":{"zip_code":"9518163","prefecture":"新潟県","prefecture_kana":"ニイガタケン","city":"新潟市中央区","city_kana":"ニイガタシチュウオウク","town":"関屋御船蔵町","town_kana":"セキヤオフナグラチョウ","prefecture_code":15},"8165":{"zip_code":"9518165","prefecture":"新潟県","prefecture_kana":"ニイガタケン","city":"新潟市中央区","city_kana":"ニイガタシチュウオウク","town":"関屋金鉢山町","town_kana":"セキヤカナバチヤマチョウ","prefecture_code":15},"8167":{"zip_code":"9518167","prefecture":"新潟県","prefecture_kana":"ニイガタケン","city":"新潟市中央区","city_kana":"ニイガタシチュウオウク","town":"関屋金衛町","town_kana":"セキヤキンエイチョウ","prefecture_code":15},"8127":{"zip_code":"9518127","prefecture":"新潟県","prefecture_kana":"ニイガタケン","city":"新潟市中央区","city_kana":"ニイガタシチュウオウク","town":"関屋下川原町","town_kana":"セキヤシモカワラチョウ","prefecture_code":15},"8164":{"zip_code":"9518164","prefecture":"新潟県","prefecture_kana":"ニイガタケン","city":"新潟市中央区","city_kana":"ニイガタシチュウオウク","town":"関屋昭和町","town_kana":"セキヤショウワチョウ","prefecture_code":15},"8135":{"zip_code":"9518135","prefecture":"新潟県","prefecture_kana":"ニイガタケン","city":"新潟市中央区","city_kana":"ニイガタシチュウオウク","town":"関屋新町通","town_kana":"セキヤシンマチドオリ","prefecture_code":15},"8136":{"zip_code":"9518136","prefecture":"新潟県","prefecture_kana":"ニイガタケン","city":"新潟市中央区","city_kana":"ニイガタシチュウオウク","town":"関屋田町","town_kana":"セキヤタマチ","prefecture_code":15},"8166":{"zip_code":"9518166","prefecture":"新潟県","prefecture_kana":"ニイガタケン","city":"新潟市中央区","city_kana":"ニイガタシチュウオウク","town":"関屋浜松町","town_kana":"セキヤハママツチョウ","prefecture_code":15},"8162":{"zip_code":"9518162","prefecture":"新潟県","prefecture_kana":"ニイガタケン","city":"新潟市中央区","city_kana":"ニイガタシチュウオウク","town":"関屋本村町","town_kana":"セキヤホンソンチョウ","prefecture_code":15},"8161":{"zip_code":"9518161","prefecture":"新潟県","prefecture_kana":"ニイガタケン","city":"新潟市中央区","city_kana":"ニイガタシチュウオウク","town":"関屋松波町","town_kana":"セキヤマツナミチョウ","prefecture_code":15},"8143":{"zip_code":"9518143","prefecture":"新潟県","prefecture_kana":"ニイガタケン","city":"新潟市中央区","city_kana":"ニイガタシチュウオウク","town":"関屋恵町","town_kana":"セキヤメグミチョウ","prefecture_code":15},"8103":{"zip_code":"9518103","prefecture":"新潟県","prefecture_kana":"ニイガタケン","city":"新潟市中央区","city_kana":"ニイガタシチュウオウク","town":"田中町","town_kana":"タナカマチ","prefecture_code":15},"8016":{"zip_code":"9518016","prefecture":"新潟県","prefecture_kana":"ニイガタケン","city":"新潟市中央区","city_kana":"ニイガタシチュウオウク","town":"田町","town_kana":"タマチ","prefecture_code":15},"8007":{"zip_code":"9518007","prefecture":"新潟県","prefecture_kana":"ニイガタケン","city":"新潟市中央区","city_kana":"ニイガタシチュウオウク","town":"忠蔵町","town_kana":"チュウゾウマチ","prefecture_code":15},"8057":{"zip_code":"9518057","prefecture":"新潟県","prefecture_kana":"ニイガタケン","city":"新潟市中央区","city_kana":"ニイガタシチュウオウク","town":"月町","town_kana":"ツキチョウ","prefecture_code":15},"8006":{"zip_code":"9518006","prefecture":"新潟県","prefecture_kana":"ニイガタケン","city":"新潟市中央区","city_kana":"ニイガタシチュウオウク","town":"附船町","town_kana":"ツケフネチョウ","prefecture_code":15},"8115":{"zip_code":"9518115","prefecture":"新潟県","prefecture_kana":"ニイガタケン","city":"新潟市中央区","city_kana":"ニイガタシチュウオウク","town":"寺裏通","town_kana":"テラウラドオリ","prefecture_code":15},"8085":{"zip_code":"9518085","prefecture":"新潟県","prefecture_kana":"ニイガタケン","city":"新潟市中央区","city_kana":"ニイガタシチュウオウク","town":"寺山町","town_kana":"テラヤマチョウ","prefecture_code":15},"8033":{"zip_code":"9518033","prefecture":"新潟県","prefecture_kana":"ニイガタケン","city":"新潟市中央区","city_kana":"ニイガタシチュウオウク","town":"豊照町","town_kana":"トヨテルチョウ","prefecture_code":15},"8108":{"zip_code":"9518108","prefecture":"新潟県","prefecture_kana":"ニイガタケン","city":"新潟市中央区","city_kana":"ニイガタシチュウオウク","town":"中大畑町","town_kana":"ナカオオハタチョウ","prefecture_code":15},"8045":{"zip_code":"9518045","prefecture":"新潟県","prefecture_kana":"ニイガタケン","city":"新潟市中央区","city_kana":"ニイガタシチュウオウク","town":"並木町","town_kana":"ナミキチョウ","prefecture_code":15},"8082":{"zip_code":"9518082","prefecture":"新潟県","prefecture_kana":"ニイガタケン","city":"新潟市中央区","city_kana":"ニイガタシチュウオウク","town":"西受地町","town_kana":"ニシウケチマチ","prefecture_code":15},"8043":{"zip_code":"9518043","prefecture":"新潟県","prefecture_kana":"ニイガタケン","city":"新潟市中央区","city_kana":"ニイガタシチュウオウク","town":"西厩島町","town_kana":"ニシウマヤジマチョウ","prefecture_code":15},"8104":{"zip_code":"9518104","prefecture":"新潟県","prefecture_kana":"ニイガタケン","city":"新潟市中央区","city_kana":"ニイガタシチュウオウク","town":"西大畑町","town_kana":"ニシオオハタチョウ","prefecture_code":15},"8118":{"zip_code":"9518118","prefecture":"新潟県","prefecture_kana":"ニイガタケン","city":"新潟市中央区","city_kana":"ニイガタシチュウオウク","town":"西中町","town_kana":"ニシナカマチ","prefecture_code":15},"8101":{"zip_code":"9518101","prefecture":"新潟県","prefecture_kana":"ニイガタケン","city":"新潟市中央区","city_kana":"ニイガタシチュウオウク","town":"西船見町","town_kana":"ニシフナミチョウ","prefecture_code":15},"8061":{"zip_code":"9518061","prefecture":"新潟県","prefecture_kana":"ニイガタケン","city":"新潟市中央区","city_kana":"ニイガタシチュウオウク","town":"西堀通","town_kana":"ニシボリドオリ","prefecture_code":15},"8062":{"zip_code":"9518062","prefecture":"新潟県","prefecture_kana":"ニイガタケン","city":"新潟市中央区","city_kana":"ニイガタシチュウオウク","town":"西堀前通","town_kana":"ニシボリマエドオリ","prefecture_code":15},"8026":{"zip_code":"9518026","prefecture":"新潟県","prefecture_kana":"ニイガタケン","city":"新潟市中央区","city_kana":"ニイガタシチュウオウク","town":"西湊町通","town_kana":"ニシミナトマチドオリ","prefecture_code":15},"8131":{"zip_code":"9518131","prefecture":"新潟県","prefecture_kana":"ニイガタケン","city":"新潟市中央区","city_kana":"ニイガタシチュウオウク","town":"白山浦","town_kana":"ハクサンウラ","prefecture_code":15},"8137":{"zip_code":"9518137","prefecture":"新潟県","prefecture_kana":"ニイガタケン","city":"新潟市中央区","city_kana":"ニイガタシチュウオウク","town":"白山浦新町通","town_kana":"ハクサンウラシンマチドオリ","prefecture_code":15},"8017":{"zip_code":"9518017","prefecture":"新潟県","prefecture_kana":"ニイガタケン","city":"新潟市中央区","city_kana":"ニイガタシチュウオウク","town":"艀川岸町","town_kana":"ハシケカワギシチョウ","prefecture_code":15},"8056":{"zip_code":"9518056","prefecture":"新潟県","prefecture_kana":"ニイガタケン","city":"新潟市中央区","city_kana":"ニイガタシチュウオウク","town":"花町","town_kana":"ハナチョウ","prefecture_code":15},"8151":{"zip_code":"9518151","prefecture":"新潟県","prefecture_kana":"ニイガタケン","city":"新潟市中央区","city_kana":"ニイガタシチュウオウク","town":"浜浦町","town_kana":"ハマウラチョウ","prefecture_code":15},"8024":{"zip_code":"9518024","prefecture":"新潟県","prefecture_kana":"ニイガタケン","city":"新潟市中央区","city_kana":"ニイガタシチュウオウク","town":"早川町","town_kana":"ハヤカワチョウ","prefecture_code":15},"8012":{"zip_code":"9518012","prefecture":"新潟県","prefecture_kana":"ニイガタケン","city":"新潟市中央区","city_kana":"ニイガタシチュウオウク","town":"東入船町","town_kana":"ヒガシイリフネチョウ","prefecture_code":15},"8087":{"zip_code":"9518087","prefecture":"新潟県","prefecture_kana":"ニイガタケン","city":"新潟市中央区","city_kana":"ニイガタシチュウオウク","town":"東受地町","town_kana":"ヒガシウケチマチ","prefecture_code":15},"8044":{"zip_code":"9518044","prefecture":"新潟県","prefecture_kana":"ニイガタケン","city":"新潟市中央区","city_kana":"ニイガタシチュウオウク","town":"東厩島町","town_kana":"ヒガシウマヤジマチョウ","prefecture_code":15},"8106":{"zip_code":"9518106","prefecture":"新潟県","prefecture_kana":"ニイガタケン","city":"新潟市中央区","city_kana":"ニイガタシチュウオウク","town":"東大畑通","town_kana":"ヒガシオオハタドオリ","prefecture_code":15},"8116":{"zip_code":"9518116","prefecture":"新潟県","prefecture_kana":"ニイガタケン","city":"新潟市中央区","city_kana":"ニイガタシチュウオウク","town":"東中通","town_kana":"ヒガシナカドオリ","prefecture_code":15},"8065":{"zip_code":"9518065","prefecture":"新潟県","prefecture_kana":"ニイガタケン","city":"新潟市中央区","city_kana":"ニイガタシチュウオウク","town":"東堀通","town_kana":"ヒガシボリドオリ","prefecture_code":15},"8066":{"zip_code":"9518066","prefecture":"新潟県","prefecture_kana":"ニイガタケン","city":"新潟市中央区","city_kana":"ニイガタシチュウオウク","town":"東堀前通","town_kana":"ヒガシボリマエドオリ","prefecture_code":15},"8028":{"zip_code":"9518028","prefecture":"新潟県","prefecture_kana":"ニイガタケン","city":"新潟市中央区","city_kana":"ニイガタシチュウオウク","town":"東湊町通","town_kana":"ヒガシミナトマチドオリ","prefecture_code":15},"8003":{"zip_code":"9518003","prefecture":"新潟県","prefecture_kana":"ニイガタケン","city":"新潟市中央区","city_kana":"ニイガタシチュウオウク","town":"雲雀町","town_kana":"ヒバリチョウ","prefecture_code":15},"8102":{"zip_code":"9518102","prefecture":"新潟県","prefecture_kana":"ニイガタケン","city":"新潟市中央区","city_kana":"ニイガタシチュウオウク","town":"二葉町","town_kana":"フタバチョウ","prefecture_code":15},"8035":{"zip_code":"9518035","prefecture":"新潟県","prefecture_kana":"ニイガタケン","city":"新潟市中央区","city_kana":"ニイガタシチュウオウク","town":"船場町","town_kana":"フナバチョウ","prefecture_code":15},"8002":{"zip_code":"9518002","prefecture":"新潟県","prefecture_kana":"ニイガタケン","city":"新潟市中央区","city_kana":"ニイガタシチュウオウク","town":"船見町","town_kana":"フナミチョウ","prefecture_code":15},"8063":{"zip_code":"9518063","prefecture":"新潟県","prefecture_kana":"ニイガタケン","city":"新潟市中央区","city_kana":"ニイガタシチュウオウク","town":"古町通","town_kana":"フルマチドオリ","prefecture_code":15},"8153":{"zip_code":"9518153","prefecture":"新潟県","prefecture_kana":"ニイガタケン","city":"新潟市中央区","city_kana":"ニイガタシチュウオウク","town":"文京町","town_kana":"ブンキョウチョウ","prefecture_code":15},"8154":{"zip_code":"9518154","prefecture":"新潟県","prefecture_kana":"ニイガタケン","city":"新潟市中央区","city_kana":"ニイガタシチュウオウク","town":"堀割町","town_kana":"ホリワリチョウ","prefecture_code":15},"8067":{"zip_code":"9518067","prefecture":"新潟県","prefecture_kana":"ニイガタケン","city":"新潟市中央区","city_kana":"ニイガタシチュウオウク","town":"本町通","town_kana":"ホンチョウドオリ","prefecture_code":15},"8041":{"zip_code":"9518041","prefecture":"新潟県","prefecture_kana":"ニイガタケン","city":"新潟市中央区","city_kana":"ニイガタシチュウオウク","town":"本間町","town_kana":"ホンマチョウ","prefecture_code":15},"8046":{"zip_code":"9518046","prefecture":"新潟県","prefecture_kana":"ニイガタケン","city":"新潟市中央区","city_kana":"ニイガタシチュウオウク","town":"秣川岸通","town_kana":"マグサカワギシドオリ","prefecture_code":15},"8015":{"zip_code":"9518015","prefecture":"新潟県","prefecture_kana":"ニイガタケン","city":"新潟市中央区","city_kana":"ニイガタシチュウオウク","town":"松岡町","town_kana":"マツオカチョウ","prefecture_code":15},"8032":{"zip_code":"9518032","prefecture":"新潟県","prefecture_kana":"ニイガタケン","city":"新潟市中央区","city_kana":"ニイガタシチュウオウク","town":"見方町","town_kana":"ミカタチョウ","prefecture_code":15},"8014":{"zip_code":"9518014","prefecture":"新潟県","prefecture_kana":"ニイガタケン","city":"新潟市中央区","city_kana":"ニイガタシチュウオウク","town":"緑町","town_kana":"ミドリマチ","prefecture_code":15},"8027":{"zip_code":"9518027","prefecture":"新潟県","prefecture_kana":"ニイガタケン","city":"新潟市中央区","city_kana":"ニイガタシチュウオウク","town":"湊町通","town_kana":"ミナトマチドオリ","prefecture_code":15},"8107":{"zip_code":"9518107","prefecture":"新潟県","prefecture_kana":"ニイガタケン","city":"新潟市中央区","city_kana":"ニイガタシチュウオウク","town":"南大畑町","town_kana":"ミナミオオハタチョウ","prefecture_code":15},"8047":{"zip_code":"9518047","prefecture":"新潟県","prefecture_kana":"ニイガタケン","city":"新潟市中央区","city_kana":"ニイガタシチュウオウク","town":"南多門町","town_kana":"ミナミタモンチョウ","prefecture_code":15},"8112":{"zip_code":"9518112","prefecture":"新潟県","prefecture_kana":"ニイガタケン","city":"新潟市中央区","city_kana":"ニイガタシチュウオウク","town":"南浜通","town_kana":"ミナミハマドオリ","prefecture_code":15},"8038":{"zip_code":"9518038","prefecture":"新潟県","prefecture_kana":"ニイガタケン","city":"新潟市中央区","city_kana":"ニイガタシチュウオウク","town":"南毘沙門町","town_kana":"ミナミビシャモンチョウ","prefecture_code":15},"8117":{"zip_code":"9518117","prefecture":"新潟県","prefecture_kana":"ニイガタケン","city":"新潟市中央区","city_kana":"ニイガタシチュウオウク","town":"南横堀町","town_kana":"ミナミヨコボリチョウ","prefecture_code":15},"8005":{"zip_code":"9518005","prefecture":"新潟県","prefecture_kana":"ニイガタケン","city":"新潟市中央区","city_kana":"ニイガタシチュウオウク","town":"室町","town_kana":"ムロマチ","prefecture_code":15},"8075":{"zip_code":"9518075","prefecture":"新潟県","prefecture_kana":"ニイガタケン","city":"新潟市中央区","city_kana":"ニイガタシチュウオウク","town":"元祝町","town_kana":"モトイワイマチ","prefecture_code":15},"8084":{"zip_code":"9518084","prefecture":"新潟県","prefecture_kana":"ニイガタケン","city":"新潟市中央区","city_kana":"ニイガタシチュウオウク","town":"元下島町","town_kana":"モトシモシマチョウ","prefecture_code":15},"8013":{"zip_code":"9518013","prefecture":"新潟県","prefecture_kana":"ニイガタケン","city":"新潟市中央区","city_kana":"ニイガタシチュウオウク","town":"柳島町","town_kana":"ヤナギシマチョウ","prefecture_code":15},"8004":{"zip_code":"9518004","prefecture":"新潟県","prefecture_kana":"ニイガタケン","city":"新潟市中央区","city_kana":"ニイガタシチュウオウク","town":"山田町","town_kana":"ヤマダマチ","prefecture_code":15},"8147":{"zip_code":"9518147","prefecture":"新潟県","prefecture_kana":"ニイガタケン","city":"新潟市中央区","city_kana":"ニイガタシチュウオウク","town":"弥生町","town_kana":"ヤヨイチョウ","prefecture_code":15},"8023":{"zip_code":"9518023","prefecture":"新潟県","prefecture_kana":"ニイガタケン","city":"新潟市中央区","city_kana":"ニイガタシチュウオウク","town":"夕栄町","town_kana":"ユウエイチョウ","prefecture_code":15},"8058":{"zip_code":"9518058","prefecture":"新潟県","prefecture_kana":"ニイガタケン","city":"新潟市中央区","city_kana":"ニイガタシチュウオウク","town":"雪町","town_kana":"ユキチョウ","prefecture_code":15},"8064":{"zip_code":"9518064","prefecture":"新潟県","prefecture_kana":"ニイガタケン","city":"新潟市中央区","city_kana":"ニイガタシチュウオウク","town":"横一番町","town_kana":"ヨコイチバンチョウ","prefecture_code":15},"8083":{"zip_code":"9518083","prefecture":"新潟県","prefecture_kana":"ニイガタケン","city":"新潟市中央区","city_kana":"ニイガタシチュウオウク","town":"横七番町通","town_kana":"ヨコシチバンチョウドオリ","prefecture_code":15},"8022":{"zip_code":"9518022","prefecture":"新潟県","prefecture_kana":"ニイガタケン","city":"新潟市中央区","city_kana":"ニイガタシチュウオウク","town":"横六番町","town_kana":"ヨコロクバンチョウ","prefecture_code":15},"8036":{"zip_code":"9518036","prefecture":"新潟県","prefecture_kana":"ニイガタケン","city":"新潟市中央区","city_kana":"ニイガタシチュウオウク","town":"芳町","town_kana":"ヨシチョウ","prefecture_code":15},"8078":{"zip_code":"9518078","prefecture":"新潟県","prefecture_kana":"ニイガタケン","city":"新潟市中央区","city_kana":"ニイガタシチュウオウク","town":"四ツ屋町","town_kana":"ヨツヤチョウ","prefecture_code":15},"8086":{"zip_code":"9518086","prefecture":"新潟県","prefecture_kana":"ニイガタケン","city":"新潟市中央区","city_kana":"ニイガタシチュウオウク","town":"寄合町","town_kana":"ヨリアイチョウ","prefecture_code":15},"8113":{"zip_code":"9518113","prefecture":"新潟県","prefecture_kana":"ニイガタケン","city":"新潟市中央区","city_kana":"ニイガタシチュウオウク","town":"寄居町","town_kana":"ヨリイチョウ","prefecture_code":15},"8155":{"zip_code":"9518155","prefecture":"新潟県","prefecture_kana":"ニイガタケン","city":"新潟市西区","city_kana":"ニイガタシニシク","town":"関屋堀割町","town_kana":"セキヤホリワリチョウ","prefecture_code":15}}