{"8404":{"zip_code":"9738404","prefecture":"福島県","prefecture_kana":"フクシマケン","city":"いわき市","city_kana":"イワキシ","town":"内郷内町","town_kana":"ウチゴウウチマチ","prefecture_code":7},"8401":{"zip_code":"9738401","prefecture":"福島県","prefecture_kana":"フクシマケン","city":"いわき市","city_kana":"イワキシ","town":"内郷小島町","town_kana":"ウチゴウオジママチ","prefecture_code":7},"8406":{"zip_code":"9738406","prefecture":"福島県","prefecture_kana":"フクシマケン","city":"いわき市","city_kana":"イワキシ","town":"内郷高野町","town_kana":"ウチゴウコウヤマチ","prefecture_code":7},"8405":{"zip_code":"9738405","prefecture":"福島県","prefecture_kana":"フクシマケン","city":"いわき市","city_kana":"イワキシ","town":"内郷白水町","town_kana":"ウチゴウシラミズマチ","prefecture_code":7},"8408":{"zip_code":"9738408","prefecture":"福島県","prefecture_kana":"フクシマケン","city":"いわき市","city_kana":"イワキシ","town":"内郷高坂町","town_kana":"ウチゴウタカサカマチ","prefecture_code":7},"8403":{"zip_code":"9738403","prefecture":"福島県","prefecture_kana":"フクシマケン","city":"いわき市","city_kana":"イワキシ","town":"内郷綴町","town_kana":"ウチゴウツヅラマチ","prefecture_code":7},"8409":{"zip_code":"9738409","prefecture":"福島県","prefecture_kana":"フクシマケン","city":"いわき市","city_kana":"イワキシ","town":"内郷御台境町","town_kana":"ウチゴウミダイサカイマチ","prefecture_code":7},"8402":{"zip_code":"9738402","prefecture":"福島県","prefecture_kana":"フクシマケン","city":"いわき市","city_kana":"イワキシ","town":"内郷御厩町","town_kana":"ウチゴウミマヤマチ","prefecture_code":7},"8407":{"zip_code":"9738407","prefecture":"福島県","prefecture_kana":"フクシマケン","city":"いわき市","city_kana":"イワキシ","town":"内郷宮町","town_kana":"ウチゴウミヤマチ","prefecture_code":7},"8411":{"zip_code":"9738411","prefecture":"福島県","prefecture_kana":"フクシマケン","city":"いわき市","city_kana":"イワキシ","town":"小島町","town_kana":"オジママチ","prefecture_code":7},"8412":{"zip_code":"9738412","prefecture":"福島県","prefecture_kana":"フクシマケン","city":"いわき市","city_kana":"イワキシ","town":"平成","town_kana":"ヘイセイ","prefecture_code":7}}